{"type":"FeatureCollection","features":[{"type":"Feature","properties":{"source":"Bacud (1997, Revised) Tectonic Map","category":"Class 1","mechanism":null,"description":null,"length_m":120796.4},"geometry":{"type":"LineString","coordinates":[[121.8542,13.631],[121.8749,13.6291],[121.907,13.6231],[121.9291,13.6172],[121.952,13.6121],[121.9716,13.6083],[121.9853,13.605],[121.9984,13.5999],[122.0148,13.5901],[122.0407,13.5761],[122.0585,13.569],[122.0823,13.5603],[122.102,13.5529],[122.1245,13.5474],[122.1509,13.5371],[122.1609,13.5279],[122.185,13.5162],[122.204,13.5079],[122.208,13.505],[122.2168,13.4991],[122.2276,13.4901],[122.2386,13.4894],[122.2486,13.4847],[122.2632,13.4752],[122.2742,13.4699],[122.293,13.4601],[122.3025,13.4538],[122.3186,13.4435],[122.3274,13.4367],[122.3517,13.4216],[122.369,13.4089],[122.3858,13.4001],[122.4018,13.3899],[122.4171,13.384],[122.4266,13.377],[122.4404,13.3662],[122.4517,13.3499],[122.4677,13.3345],[122.4823,13.3196],[122.4986,13.3116],[122.5171,13.2979],[122.5362,13.2867],[122.552,13.2777],[122.562,13.271],[122.5763,13.2549],[122.5805,13.2457],[122.5856,13.2396],[122.5951,13.234],[122.6076,13.2247],[122.6139,13.2206],[122.6262,13.2093],[122.6362,13.2023],[122.644,13.1945],[122.6445,13.1884],[122.66,13.1718],[122.663,13.1635],[122.6725,13.1549],[122.6778,13.1464],[122.6836,13.1391],[122.6956,13.1271],[122.7107,13.122],[122.7262,13.1149],[122.7322,13.1061],[122.7397,13.0978],[122.746,13.0878],[122.7495,13.0827],[122.7475,13.07],[122.7457,13.0648],[122.7425,13.0612],[122.74,13.0595]]}},{"type":"Feature","properties":{"source":"Bacud (1997, Revised) Tectonic Map","category":"Class 2","mechanism":null,"description":null,"length_m":2058.8},"geometry":{"type":"LineString","coordinates":[[121.8773,13.6449],[121.8658,13.63]]}},{"type":"Feature","properties":{"source":"Bacud (1997, Revised) Tectonic Map","category":"Class 1","mechanism":null,"description":null,"length_m":2696.5},"geometry":{"type":"LineString","coordinates":[[121.9236,13.6383],[121.9032,13.6242]]}},{"type":"Feature","properties":{"source":"Bacud (1997, Revised) Tectonic Map","category":"Class 1","mechanism":null,"description":null,"length_m":24416.5},"geometry":{"type":"LineString","coordinates":[[122.0261,13.5867],[122.0405,13.5824],[122.0479,13.5817],[122.056,13.5821],[122.0605,13.5799],[122.0688,13.5742],[122.0753,13.5686],[122.0839,13.5639],[122.1023,13.5577],[122.1209,13.5502],[122.1319,13.548],[122.1486,13.5405],[122.1708,13.5424],[122.1814,13.5411],[122.1943,13.5442],[122.2258,13.5486],[122.2387,13.5542]]}},{"type":"Feature","properties":{"source":"Bacud (1997, Revised) Tectonic Map","category":"Class 1","mechanism":null,"description":null,"length_m":120857.2},"geometry":{"type":"LineString","coordinates":[[122.1529,13.5269],[122.1537,13.5168],[122.1555,13.511],[122.1594,13.5016],[122.1656,13.4971],[122.182,13.493],[122.1888,13.492],[122.196,13.492],[122.2051,13.493],[122.2114,13.492],[122.2179,13.4885],[122.2257,13.4865],[122.2444,13.4842],[122.2517,13.4802],[122.2584,13.4746],[122.2688,13.4665],[122.2797,13.4602],[122.3037,13.445],[122.3091,13.4397],[122.326,13.4293],[122.3323,13.4212],[122.3484,13.4081],[122.3645,13.3975],[122.378,13.3899],[122.3905,13.3823],[122.4061,13.3737],[122.4173,13.3659],[122.4274,13.3621],[122.4412,13.3527],[122.4503,13.3438],[122.456,13.3358],[122.4581,13.3279],[122.4581,13.3094],[122.4539,13.2973],[122.4498,13.2882],[122.4482,13.276],[122.4474,13.2649],[122.4474,13.2487],[122.448,13.2358],[122.4482,13.2168],[122.4516,13.2087],[122.4516,13.2047],[122.4576,13.1885],[122.4638,13.1725],[122.4708,13.1622],[122.4805,13.152],[122.487,13.1459],[122.4953,13.1356],[122.5,13.1308],[122.5057,13.1229],[122.513,13.1173],[122.5241,13.1067],[122.5358,13.0966],[122.5447,13.09],[122.5636,13.0743],[122.5904,13.0543],[122.6076,13.0431],[122.6305,13.0421],[122.6396,13.0404],[122.6536,13.0398],[122.6669,13.0419],[122.6968,13.0457],[122.7092,13.0487],[122.716,13.0474],[122.7228,13.0366],[122.7352,13.0269],[122.741,13.0206],[122.7514,13.0102],[122.7597,13.0016],[122.78,12.9829],[122.813,12.9595],[122.8228,12.9535],[122.8299,12.9476],[122.8395,12.9367],[122.852,12.9281],[122.8642,12.9182],[122.8735,12.9129],[122.8891,12.9048],[122.9024,12.8959],[122.9089,12.8921],[122.9157,12.8878]]}},{"type":"Feature","properties":{"source":"Bacud (1997, Revised) Tectonic Map","category":"Class 1","mechanism":null,"description":null,"length_m":18160.3},"geometry":{"type":"LineString","coordinates":[[122.7095,13.0062],[122.7186,13.0021],[122.7287,12.996],[122.7399,12.9899],[122.7472,12.9844],[122.7581,12.977],[122.7761,12.9664],[122.7813,12.9628],[122.7898,12.9595],[122.7945,12.9535],[122.8135,12.9403],[122.8275,12.9342],[122.8353,12.9302],[122.8455,12.9256],[122.8527,12.9271]]}},{"type":"Feature","properties":{"source":"Bacud (1997, Revised) Tectonic Map","category":"Class 1","mechanism":null,"description":null,"length_m":3783.2},"geometry":{"type":"LineString","coordinates":[[122.7914,12.9666],[122.7956,12.9626],[122.7992,12.9606],[122.8028,12.9565],[122.8078,12.954],[122.8151,12.9509],[122.8205,12.9489]]}},{"type":"Feature","properties":{"source":"Bacud (1997, Revised) Tectonic Map","category":"Class 1","mechanism":null,"description":null,"length_m":13942.7},"geometry":{"type":"LineString","coordinates":[[122.8525,12.9385],[122.8592,12.9355],[122.8749,12.9288],[122.8809,12.9274],[122.8985,12.9241],[122.9046,12.9236],[122.9104,12.9217],[122.9157,12.9186],[122.9301,12.916],[122.942,12.913],[122.9493,12.9113],[122.9664,12.9087],[122.9737,12.9068],[122.9758,12.9061]]}},{"type":"Feature","properties":{"source":"Bacud (1997, Revised) Tectonic Map","category":"Class 1","mechanism":null,"description":null,"length_m":9415.4},"geometry":{"type":"LineString","coordinates":[[122.8822,12.9383],[122.8873,12.9307],[122.8934,12.9248],[122.9019,12.9186],[122.9092,12.9113],[122.9153,12.9068],[122.9204,12.9004],[122.9372,12.8897],[122.9435,12.8831],[122.9459,12.8819]]}},{"type":"Feature","properties":{"source":"Bacud (1997, Revised) Tectonic Map","category":"Class 1","mechanism":null,"description":null,"length_m":3643.7},"geometry":{"type":"LineString","coordinates":[[122.9999,12.8999],[123.024,12.8966],[123.033,12.8945]]}},{"type":"Feature","properties":{"source":"Bacud (1997, Revised) Tectonic Map","category":"Class 1","mechanism":null,"description":null,"length_m":8146.0},"geometry":{"type":"LineString","coordinates":[[123.0668,12.8904],[123.078,12.8902],[123.1002,12.8881],[123.1072,12.8871],[123.1133,12.8859],[123.1235,12.8859],[123.1325,12.8847],[123.1415,12.8852]]}},{"type":"Feature","properties":{"source":"Bacud (1997, Revised) Tectonic Map","category":"Class 2","mechanism":null,"description":null,"length_m":3779.3},"geometry":{"type":"LineString","coordinates":[[123.1041,12.9198],[123.1104,12.9163],[123.1172,12.9103],[123.1206,12.9094],[123.1269,12.9063],[123.1338,12.9025]]}},{"type":"Feature","properties":{"source":"Bacud (1997, Revised) Tectonic Map","category":"Class 2","mechanism":null,"description":null,"length_m":4067.3},"geometry":{"type":"LineString","coordinates":[[122.3941,13.3994],[122.4065,13.3994],[122.4118,13.4003],[122.4159,13.4026],[122.4307,13.4055]]}},{"type":"Feature","properties":{"source":"Bacud (1997, Revised) Tectonic Map","category":"Class 2","mechanism":null,"description":null,"length_m":2815.8},"geometry":{"type":"LineString","coordinates":[[122.4156,13.3908],[122.4227,13.3925],[122.4333,13.3934],[122.4413,13.3946]]}},{"type":"Feature","properties":{"source":"Bacud (1997, Revised) Tectonic Map","category":"Class 2","mechanism":null,"description":null,"length_m":14603.6},"geometry":{"type":"LineString","coordinates":[[122.41,13.3604],[122.4153,13.3555],[122.4183,13.3547],[122.4248,13.3486],[122.4289,13.3406],[122.4298,13.3303],[122.4259,13.3159],[122.4236,13.3021],[122.4209,13.2832],[122.4209,13.2751],[122.4194,13.2613],[122.4206,13.251],[122.4236,13.2378]]}},{"type":"Feature","properties":{"source":"Bacud (1997, Revised) Tectonic Map","category":"Class 2","mechanism":null,"description":null,"length_m":3346.3},"geometry":{"type":"LineString","coordinates":[[122.3787,13.3148],[122.3911,13.3107],[122.3979,13.305],[122.4065,13.3027]]}},{"type":"Feature","properties":{"source":"Bacud (1997, Revised) Tectonic Map","category":"Class 2","mechanism":null,"description":null,"length_m":8202.5},"geometry":{"type":"LineString","coordinates":[[122.405,13.3202],[122.4079,13.3004],[122.4082,13.2803],[122.4076,13.2671],[122.4094,13.255],[122.41,13.2464]]}},{"type":"Feature","properties":{"source":"Bacud (1997, Revised) Tectonic Map","category":"Class 2","mechanism":null,"description":null,"length_m":8871.0},"geometry":{"type":"LineString","coordinates":[[122.4448,13.3084],[122.441,13.2909],[122.4348,13.2734],[122.4324,13.2458],[122.433,13.2297]]}},{"type":"Feature","properties":{"source":"Bacud (1997, Revised) Tectonic Map","category":"Class 2","mechanism":null,"description":null,"length_m":14125.4},"geometry":{"type":"LineString","coordinates":[[122.3598,13.2969],[122.3672,13.2964],[122.3725,13.2932],[122.3755,13.2883],[122.3802,13.2837],[122.3835,13.2774],[122.3876,13.2711],[122.3953,13.2608],[122.4012,13.2556],[122.4091,13.2478],[122.4159,13.243],[122.4242,13.2384],[122.4324,13.2309],[122.4372,13.228],[122.4407,13.224],[122.4504,13.2102]]}},{"type":"Feature","properties":{"source":"Bacud (1997, Revised) Tectonic Map","category":"Class 2","mechanism":null,"description":null,"length_m":6621.5},"geometry":{"type":"LineString","coordinates":[[122.3347,13.2855],[122.3401,13.274],[122.3442,13.2677],[122.3479,13.2625],[122.357,13.2526],[122.3628,13.2467],[122.3726,13.2397]]}},{"type":"Feature","properties":{"source":"Bacud (1997, Revised) Tectonic Map","category":"Class 2","mechanism":null,"description":null,"length_m":7953.4},"geometry":{"type":"LineString","coordinates":[[122.3096,13.5191],[122.3085,13.5126],[122.3081,13.5073],[122.3092,13.4955],[122.3087,13.4833],[122.3096,13.4684],[122.3117,13.4581],[122.3129,13.4477]]}},{"type":"Feature","properties":{"source":"Bacud (1997, Revised) Tectonic Map","category":"Class 2","mechanism":null,"description":null,"length_m":3302.1},"geometry":{"type":"LineString","coordinates":[[122.3196,13.4955],[122.3224,13.4831],[122.3272,13.4666]]}},{"type":"Feature","properties":{"source":"Bacud (1997, Revised) Tectonic Map","category":"Class 2","mechanism":null,"description":null,"length_m":8340.9},"geometry":{"type":"LineString","coordinates":[[122.3376,13.4947],[122.3418,13.4839],[122.3439,13.4756],[122.3462,13.4686],[122.3489,13.4621],[122.3494,13.4583],[122.3506,13.4519],[122.3508,13.4479],[122.355,13.4361],[122.3592,13.4226]]}},{"type":"Feature","properties":{"source":"Bacud (1997, Revised) Tectonic Map","category":"Class 2","mechanism":null,"description":null,"length_m":10038.2},"geometry":{"type":"LineString","coordinates":[[122.168,13.5255],[122.1735,13.5287],[122.1764,13.5287],[122.1856,13.5267],[122.1898,13.5265],[122.1944,13.5257],[122.2003,13.5252],[122.2053,13.5252],[122.2112,13.5259],[122.2191,13.5261],[122.2271,13.5281],[122.2365,13.5309],[122.2472,13.5356],[122.2564,13.5407]]}},{"type":"Feature","properties":{"source":"Bacud (1997, Revised) Tectonic Map","category":"Class 2","mechanism":null,"description":null,"length_m":7633.9},"geometry":{"type":"LineString","coordinates":[[122.2193,13.5328],[122.2273,13.5373],[122.2317,13.5409],[122.2409,13.544],[122.2459,13.5444],[122.2497,13.545],[122.2547,13.5485],[122.2648,13.5521],[122.2727,13.556],[122.2819,13.5623]]}},{"type":"Feature","properties":{"source":"Bacud (1997, Revised) Tectonic Map","category":"Class 2","mechanism":null,"description":null,"length_m":3646.9},"geometry":{"type":"LineString","coordinates":[[122.2868,13.5537],[122.2995,13.5574],[122.3071,13.5574],[122.3133,13.555],[122.3192,13.5533]]}},{"type":"Feature","properties":{"source":"Bacud (1997, Revised) Tectonic Map","category":"Class 2","mechanism":null,"description":null,"length_m":4958.3},"geometry":{"type":"LineString","coordinates":[[122.1802,13.5945],[122.1819,13.5639],[122.1823,13.5497]]}},{"type":"Feature","properties":{"source":"Bacud (1997, Revised) Tectonic Map","category":"Class 2","mechanism":null,"description":null,"length_m":2512.2},"geometry":{"type":"LineString","coordinates":[[121.9064,13.7189],[121.9121,13.7098],[121.9149,13.7069],[121.9178,13.7035],[121.9196,13.7004]]}},{"type":"Feature","properties":{"source":"Bacud (1997, Revised) Tectonic Map","category":"Class 2","mechanism":null,"description":null,"length_m":5069.8},"geometry":{"type":"LineString","coordinates":[[121.9196,13.6916],[121.9215,13.6852],[121.9228,13.682],[121.9249,13.6782],[121.931,13.6714],[121.9332,13.6694],[121.9358,13.6657],[121.9399,13.6628],[121.9434,13.6589],[121.9473,13.6561]]}},{"type":"Feature","properties":{"source":"Bacud (1997, Revised) Tectonic Map","category":"Class 2","mechanism":null,"description":null,"length_m":6570.7},"geometry":{"type":"LineString","coordinates":[[121.9368,13.7552],[121.9377,13.7421],[121.9431,13.7174],[121.9459,13.7087],[121.9505,13.6977]]}},{"type":"Feature","properties":{"source":"Bacud (1997, Revised) Tectonic Map","category":"Class 2","mechanism":null,"description":null,"length_m":7967.5},"geometry":{"type":"LineString","coordinates":[[121.9562,13.7651],[121.9568,13.7564],[121.9565,13.7459],[121.9565,13.7359],[121.9571,13.7315],[121.9595,13.725],[121.9611,13.7188],[121.9638,13.7064],[121.9577,13.6955]]}},{"type":"Feature","properties":{"source":"Bacud (1997, Revised) Tectonic Map","category":"Class 2","mechanism":null,"description":null,"length_m":4988.5},"geometry":{"type":"LineString","coordinates":[[122.0206,13.77],[122.0181,13.7616],[122.0144,13.7517],[122.0133,13.7436],[122.0111,13.7369],[122.0081,13.7267]]}},{"type":"Feature","properties":{"source":"Bacud (1997, Revised) Tectonic Map","category":"Class 2","mechanism":null,"description":null,"length_m":33146.3},"geometry":{"type":"LineString","coordinates":[[122.5134,13.7558],[122.4869,13.7475],[122.4639,13.7438],[122.4178,13.7338],[122.3964,13.7313],[122.3661,13.7263],[122.342,13.7184],[122.3326,13.7141],[122.3217,13.7063],[122.3121,13.7],[122.2918,13.689],[122.2867,13.6853],[122.2788,13.6779],[122.2779,13.6743],[122.2734,13.6684],[122.2705,13.6632],[122.2624,13.6531],[122.2547,13.6429],[122.2466,13.6355]]}},{"type":"Feature","properties":{"source":"Bacud (1997, Revised) Tectonic Map","category":"Class 2","mechanism":null,"description":null,"length_m":8766.1},"geometry":{"type":"LineString","coordinates":[[122.2995,13.682],[122.2931,13.6674],[122.288,13.6575],[122.2856,13.6442],[122.2846,13.6352],[122.2815,13.6109],[122.2791,13.6062]]}},{"type":"Feature","properties":{"source":"Bacud (1997, Revised) Tectonic Map","category":"Class 2","mechanism":null,"description":null,"length_m":10958.4},"geometry":{"type":"LineString","coordinates":[[122.3343,13.7134],[122.3323,13.7034],[122.3297,13.6952],[122.3267,13.6887],[122.3247,13.6847],[122.3231,13.6787],[122.3212,13.6735],[122.3186,13.665],[122.3172,13.6535],[122.3134,13.6398],[122.3114,13.6331],[122.3114,13.6248],[122.3104,13.6178]]}},{"type":"Feature","properties":{"source":"Bacud (1997, Revised) Tectonic Map","category":"Class 2","mechanism":null,"description":null,"length_m":9046.9},"geometry":{"type":"LineString","coordinates":[[122.3125,13.6291],[122.3212,13.6362],[122.325,13.6416],[122.3368,13.6655],[122.3426,13.6726],[122.351,13.6858],[122.3564,13.6976]]}},{"type":"Feature","properties":{"source":"Bacud (1997, Revised) Tectonic Map","category":"Class 2","mechanism":null,"description":null,"length_m":2028.5},"geometry":{"type":"LineString","coordinates":[[121.8443,13.6017],[121.8348,13.5862],[121.8345,13.5862]]}},{"type":"Feature","properties":{"source":"Bacud (1997, Revised) Tectonic Map","category":"Class 2","mechanism":null,"description":null,"length_m":3102.3},"geometry":{"type":"LineString","coordinates":[[121.8696,13.6017],[121.848,13.5833]]}},{"type":"Feature","properties":{"source":"Bacud (1997, Revised) Tectonic Map","category":"Class 2","mechanism":null,"description":null,"length_m":1853.8},"geometry":{"type":"LineString","coordinates":[[121.9474,13.6513],[121.9613,13.6612]]}},{"type":"Feature","properties":{"source":"Bacud (1997, Revised) Tectonic Map","category":"Class 2","mechanism":null,"description":null,"length_m":4791.2},"geometry":{"type":"LineString","coordinates":[[121.9819,13.6684],[121.9961,13.6753],[122.0096,13.6848],[122.015,13.6881],[122.0204,13.6881]]}},{"type":"Feature","properties":{"source":"Bacud (1997, Revised) Tectonic Map","category":"Class 2","mechanism":null,"description":null,"length_m":6888.5},"geometry":{"type":"LineString","coordinates":[[122.0421,13.7272],[122.0542,13.7206],[122.0718,13.7157],[122.0934,13.7108],[122.1022,13.7078]]}},{"type":"Feature","properties":{"source":"Bacud (1997, Revised) Tectonic Map","category":"Class 2","mechanism":null,"description":null,"length_m":3240.1},"geometry":{"type":"LineString","coordinates":[[122.0779,13.7242],[122.0894,13.7216],[122.1043,13.7114]]}},{"type":"Feature","properties":{"source":"Bacud (1997, Revised) Tectonic Map","category":"Class 2","mechanism":null,"description":null,"length_m":6337.1},"geometry":{"type":"LineString","coordinates":[[122.0208,13.626],[122.0143,13.6392],[122.011,13.6483],[122.017,13.6713],[122.017,13.6805]]}},{"type":"Feature","properties":{"source":"Bacud (1997, Revised) Tectonic Map","category":"Class 2","mechanism":null,"description":null,"length_m":7778.1},"geometry":{"type":"LineString","coordinates":[[122.0231,13.6838],[122.0238,13.6684],[122.0265,13.6523],[122.0306,13.6326],[122.0319,13.6142]]}},{"type":"Feature","properties":{"source":"Bacud (1997, Revised) Tectonic Map","category":"Class 2","mechanism":null,"description":null,"length_m":3061.7},"geometry":{"type":"LineString","coordinates":[[122.061,13.7049],[122.061,13.6934],[122.0579,13.6799],[122.0573,13.6776]]}},{"type":"Feature","properties":{"source":"Bacud (1997, Revised) Tectonic Map","category":"Class 2","mechanism":null,"description":null,"length_m":1757.6},"geometry":{"type":"LineString","coordinates":[[122.0826,13.7003],[122.0847,13.6845]]}},{"type":"Feature","properties":{"source":"Bacud (1997, Revised) Tectonic Map","category":"Class 2","mechanism":null,"description":null,"length_m":3670.9},"geometry":{"type":"LineString","coordinates":[[122.0617,13.6779],[122.0613,13.671],[122.06,13.6608],[122.0569,13.652],[122.0593,13.6457]]}},{"type":"Feature","properties":{"source":"Bacud (1997, Revised) Tectonic Map","category":"Class 2","mechanism":null,"description":null,"length_m":1399.8},"geometry":{"type":"LineString","coordinates":[[122.063,13.6855],[122.0684,13.674]]}},{"type":"Feature","properties":{"source":"Bacud (1997, Revised) Tectonic Map","category":"Class 2","mechanism":null,"description":null,"length_m":2362.5},"geometry":{"type":"LineString","coordinates":[[122.1286,13.6894],[122.1286,13.6753],[122.1283,13.6681]]}},{"type":"Feature","properties":{"source":"Bacud (1997, Revised) Tectonic Map","category":"Class 2","mechanism":null,"description":null,"length_m":3935.9},"geometry":{"type":"LineString","coordinates":[[121.9389,13.5915],[121.9552,13.579],[121.9663,13.5682]]}},{"type":"Feature","properties":{"source":"Bacud (1997, Revised) Tectonic Map","category":"Class 2","mechanism":null,"description":null,"length_m":6682.1},"geometry":{"type":"LineString","coordinates":[[122.0255,13.5922],[122.0363,13.5961],[122.0424,13.6014],[122.0485,13.6037],[122.059,13.605],[122.0698,13.6132],[122.0765,13.6221]]}},{"type":"Feature","properties":{"source":"Bacud (1997, Revised) Tectonic Map","category":"Class 2","mechanism":null,"description":null,"length_m":6372.3},"geometry":{"type":"LineString","coordinates":[[122.0275,13.5918],[122.0387,13.5941],[122.0596,13.5991],[122.0691,13.6027],[122.0779,13.6155]]}},{"type":"Feature","properties":{"source":"Bacud (1997, Revised) Tectonic Map","category":"Class 2","mechanism":null,"description":null,"length_m":2414.8},"geometry":{"type":"LineString","coordinates":[[122.1404,13.6369],[122.1475,13.6162]]}},{"type":"Feature","properties":{"source":"Bacud (1997, Revised) Tectonic Map","category":"Class 2","mechanism":null,"description":null,"length_m":5211.9},"geometry":{"type":"LineString","coordinates":[[122.1536,13.6014],[122.1533,13.5889],[122.1486,13.5757],[122.1458,13.5639],[122.1452,13.5554]]}},{"type":"Feature","properties":{"source":"Bacud (1997, Revised) Tectonic Map","category":"Class 2","mechanism":null,"description":null,"length_m":4886.5},"geometry":{"type":"LineString","coordinates":[[122.1567,13.6001],[122.156,13.5849],[122.1567,13.5751],[122.156,13.5652],[122.1523,13.5567]]}},{"type":"Feature","properties":{"source":"Bacud (1997, Revised) Tectonic Map","category":"Class 2","mechanism":null,"description":null,"length_m":2219.9},"geometry":{"type":"LineString","coordinates":[[122.0965,13.5964],[122.0975,13.5764]]}},{"type":"Feature","properties":{"source":"Bacud (1997, Revised) Tectonic Map","category":"Class 2","mechanism":null,"description":null,"length_m":2121.4},"geometry":{"type":"LineString","coordinates":[[122.1117,13.6066],[122.1005,13.5908]]}},{"type":"Feature","properties":{"source":"Bacud (1997, Revised) Tectonic Map","category":"Class 2","mechanism":null,"description":null,"length_m":5909.7},"geometry":{"type":"LineString","coordinates":[[122.1076,13.6349],[122.1161,13.6204],[122.1215,13.6076],[122.1235,13.5994],[122.1232,13.5849]]}},{"type":"Feature","properties":{"source":"Bacud (1997, Revised) Tectonic Map","category":"Class 1","mechanism":null,"description":null,"length_m":48055.3},"geometry":{"type":"LineString","coordinates":[[121.7849,13.5977],[121.7892,13.5829],[121.7905,13.5762],[121.7912,13.5711],[121.7939,13.5621],[121.7954,13.5557],[121.7974,13.5496],[121.8003,13.5425],[121.8079,13.5257],[121.8098,13.5192],[121.8125,13.5137],[121.8133,13.5076],[121.8157,13.5019],[121.8159,13.5019],[121.8203,13.4925],[121.834,13.4682],[121.8368,13.4627],[121.8407,13.4573],[121.8464,13.4517],[121.8496,13.4485],[121.8711,13.4307],[121.8975,13.4144],[121.9198,13.3878],[121.9471,13.348],[121.9839,13.309],[122.0126,13.2807],[122.0312,13.2683],[122.0458,13.2652]]}},{"type":"Feature","properties":{"source":"Bacud (1997, Revised) Tectonic Map","category":"Class 2","mechanism":null,"description":null,"length_m":11230.7},"geometry":{"type":"LineString","coordinates":[[122.3472,13.5505],[122.3668,13.567],[122.3827,13.5814],[122.3938,13.5939],[122.4168,13.6251]]}},{"type":"Feature","properties":{"source":"Bacud (1997, Revised) Tectonic Map","category":"Class 2","mechanism":null,"description":null,"length_m":8058.9},"geometry":{"type":"LineString","coordinates":[[122.3888,13.5382],[122.3918,13.5476],[122.3932,13.5533],[122.3932,13.5575],[122.3955,13.5675],[122.3962,13.5717],[122.3974,13.5759],[122.4003,13.5834],[122.4067,13.592],[122.4153,13.6049]]}},{"type":"Feature","properties":{"source":"Bacud (1997, Revised) Tectonic Map","category":"Class 1","mechanism":null,"description":null,"length_m":13669.3},"geometry":{"type":"LineString","coordinates":[[122.3421,13.5412],[122.3482,13.5395],[122.3624,13.5412],[122.3783,13.5455],[122.3965,13.5527],[122.4121,13.5658],[122.4287,13.5829],[122.4429,13.598],[122.4462,13.6]]}},{"type":"Feature","properties":{"source":"Bacud (1997, Revised) Tectonic Map","category":"Class 1","mechanism":null,"description":null,"length_m":7711.2},"geometry":{"type":"LineString","coordinates":[[122.4293,13.5724],[122.4523,13.5934],[122.4679,13.6095],[122.48,13.6214]]}},{"type":"Feature","properties":{"source":"Bacud (1997, Revised) Tectonic Map","category":"Class 1","mechanism":null,"description":null,"length_m":10759.9},"geometry":{"type":"LineString","coordinates":[[122.4239,13.5921],[122.4317,13.5987],[122.4429,13.6125],[122.451,13.6247],[122.4581,13.6316],[122.4652,13.6368],[122.4713,13.6404],[122.4841,13.6532],[122.4942,13.6595]]}},{"type":"Feature","properties":{"source":"Bacud (1997, Revised) Tectonic Map","category":"Class 1","mechanism":null,"description":null,"length_m":3599.0},"geometry":{"type":"LineString","coordinates":[[122.4704,13.6242],[122.48,13.6316],[122.4878,13.6362],[122.4942,13.6373],[122.4997,13.6373]]}},{"type":"Feature","properties":{"source":"Bacud (1997, Revised) Tectonic Map","category":"Class 1","mechanism":null,"description":null,"length_m":35866.4},"geometry":{"type":"LineString","coordinates":[[122.4599,13.6017],[122.4618,13.5929],[122.4643,13.5882],[122.4724,13.5782],[122.4811,13.5724],[122.4902,13.5668],[122.4956,13.563],[122.5029,13.5583],[122.5093,13.5561],[122.5127,13.5566],[122.5176,13.5526],[122.5228,13.5447],[122.5301,13.537],[122.5394,13.528],[122.5426,13.5253],[122.5456,13.5214],[122.55,13.5178],[122.5537,13.5138],[122.5595,13.5058],[122.5644,13.5003],[122.5698,13.4957],[122.582,13.4867],[122.5874,13.4832],[122.5921,13.4762],[122.6028,13.4632],[122.6072,13.457],[122.622,13.4391],[122.627,13.4317],[122.6296,13.4273],[122.6332,13.4189],[122.6373,13.4119],[122.6406,13.405],[122.6423,13.4033],[122.6449,13.3961],[122.6484,13.3876],[122.6509,13.3821],[122.6504,13.3672],[122.6493,13.3547]]}},{"type":"Feature","properties":{"source":"Bacud (1997, Revised) Tectonic Map","category":"Class 1","mechanism":null,"description":null,"length_m":10174.6},"geometry":{"type":"LineString","coordinates":[[122.4097,13.5615],[122.419,13.5553],[122.4381,13.5461],[122.4587,13.5384],[122.4724,13.5335],[122.4853,13.5307],[122.4937,13.5284],[122.4961,13.5267]]}},{"type":"Feature","properties":{"source":"Bacud (1997, Revised) Tectonic Map","category":"Class 1","mechanism":null,"description":null,"length_m":13935.4},"geometry":{"type":"LineString","coordinates":[[122.4177,13.5611],[122.4285,13.5542],[122.4342,13.5512],[122.4456,13.5461],[122.4674,13.5389],[122.4735,13.5374],[122.4809,13.5348],[122.4975,13.5336],[122.5074,13.5274],[122.5243,13.5192],[122.5309,13.5177],[122.5357,13.5147]]}},{"type":"Feature","properties":{"source":"Bacud (1997, Revised) Tectonic Map","category":"Class 1","mechanism":null,"description":null,"length_m":18969.2},"geometry":{"type":"LineString","coordinates":[[122.4831,13.4878],[122.4924,13.4797],[122.5029,13.471],[122.5101,13.4634],[122.534,13.4342],[122.545,13.4192],[122.5546,13.4075],[122.5877,13.3633],[122.5952,13.3567]]}},{"type":"Feature","properties":{"source":"Bacud (1997, Revised) Tectonic Map","category":"Class 2","mechanism":null,"description":null,"length_m":2875.1},"geometry":{"type":"LineString","coordinates":[[122.5465,13.5205],[122.5384,13.5155],[122.5333,13.5113],[122.5252,13.505]]}},{"type":"Feature","properties":{"source":"Bacud (1997, Revised) Tectonic Map","category":"Class 2","mechanism":null,"description":null,"length_m":3638.5},"geometry":{"type":"LineString","coordinates":[[122.5184,13.5155],[122.5255,13.5109],[122.533,13.5034],[122.5387,13.4948],[122.5407,13.4915]]}},{"type":"Feature","properties":{"source":"Bacud (1997, Revised) Tectonic Map","category":"Class 1","mechanism":null,"description":null,"length_m":23398.0},"geometry":{"type":"LineString","coordinates":[[122.4707,13.4564],[122.489,13.4317],[122.5052,13.4044],[122.5133,13.388],[122.5188,13.3725],[122.5262,13.3541],[122.5343,13.3432],[122.5477,13.3225],[122.5647,13.3061],[122.5739,13.2996],[122.5838,13.2939],[122.595,13.2908]]}},{"type":"Feature","properties":{"source":"Bacud (1997, Revised) Tectonic Map","category":"Class 1","mechanism":null,"description":null,"length_m":11185.6},"geometry":{"type":"LineString","coordinates":[[122.5592,13.471],[122.5619,13.4657],[122.5663,13.4544],[122.5691,13.4454],[122.574,13.4325],[122.5723,13.421],[122.5698,13.4065],[122.5705,13.3942],[122.5774,13.3788],[122.5794,13.3748]]}},{"type":"Feature","properties":{"source":"Bacud (1997, Revised) Tectonic Map","category":"Class 2","mechanism":null,"description":null,"length_m":7689.1},"geometry":{"type":"LineString","coordinates":[[122.5566,13.4646],[122.5592,13.4582],[122.5617,13.4465],[122.5646,13.4368],[122.5661,13.4289],[122.5664,13.4213],[122.5669,13.4153],[122.5685,13.4123],[122.5685,13.4005],[122.5703,13.3972]]}},{"type":"Feature","properties":{"source":"Bacud (1997, Revised) Tectonic Map","category":"Class 1","mechanism":null,"description":null,"length_m":26520.4},"geometry":{"type":"LineString","coordinates":[[122.589,13.3981],[122.5903,13.3872],[122.5916,13.3606],[122.5928,13.3498],[122.5932,13.3351],[122.5953,13.3188],[122.5957,13.3027],[122.5941,13.2845],[122.5921,13.2684],[122.5926,13.2493],[122.5933,13.2381],[122.596,13.2271],[122.6018,13.2068],[122.6061,13.1922],[122.6095,13.1836],[122.6153,13.1771],[122.6261,13.1682]]}},{"type":"Feature","properties":{"source":"Bacud (1997, Revised) Tectonic Map","category":"Class 1","mechanism":null,"description":null,"length_m":17077.4},"geometry":{"type":"LineString","coordinates":[[122.4827,13.284],[122.4936,13.2705],[122.5088,13.2554],[122.5252,13.2407],[122.5421,13.2298],[122.5577,13.2222],[122.5639,13.2146],[122.57,13.209],[122.5862,13.1994],[122.597,13.1955],[122.6029,13.1924],[122.6058,13.1914]]}},{"type":"Feature","properties":{"source":"Bacud (1997, Revised) Tectonic Map","category":"Class 2","mechanism":null,"description":null,"length_m":4034.4},"geometry":{"type":"LineString","coordinates":[[122.5612,13.2892],[122.568,13.2834],[122.5745,13.2801],[122.578,13.2768],[122.5824,13.2733],[122.587,13.2711],[122.5897,13.2694],[122.5917,13.2691]]}},{"type":"Feature","properties":{"source":"Bacud (1997, Revised) Tectonic Map","category":"Class 1","mechanism":null,"description":null,"length_m":20461.8},"geometry":{"type":"LineString","coordinates":[[122.5885,13.2528],[122.5905,13.239],[122.5929,13.2168],[122.5946,13.2101],[122.5964,13.1947],[122.6003,13.1857],[122.61,13.1585],[122.6145,13.1468],[122.6201,13.1361],[122.6242,13.1342],[122.6269,13.1287],[122.6292,13.1273],[122.6306,13.1228],[122.6338,13.119],[122.6356,13.1172],[122.637,13.1129],[122.64,13.1062],[122.6444,13.0988],[122.6485,13.0943],[122.6532,13.0876],[122.6559,13.0856]]}},{"type":"Feature","properties":{"source":"Bacud (1997, Revised) Tectonic Map","category":"Class 1","mechanism":null,"description":null,"length_m":28182.0},"geometry":{"type":"LineString","coordinates":[[123.312,12.7882],[123.3072,12.8011],[123.3035,12.8156],[123.3022,12.8304],[123.3022,12.8502],[123.3018,12.865],[123.2988,12.8845],[123.2971,12.898],[123.2914,12.9122],[123.2836,12.9306],[123.2799,12.9451],[123.2795,12.957],[123.2805,12.9679],[123.2819,12.9774],[123.2832,12.984],[123.287,12.9972],[123.2802,13.0252],[123.2751,13.0357]]}},{"type":"Feature","properties":{"source":"Bacud (1997, Revised) Tectonic Map","category":"Class 2","mechanism":null,"description":null,"length_m":3016.4},"geometry":{"type":"LineString","coordinates":[[123.2988,12.985],[123.2903,12.9975],[123.2886,13.0018],[123.2853,13.0087]]}},{"type":"Feature","properties":{"source":"Bacud (1997, Revised) Tectonic Map","category":"Class 2","mechanism":null,"description":null,"length_m":13309.3},"geometry":{"type":"LineString","coordinates":[[123.1333,13.014],[123.1313,13.0215],[123.1289,13.0291],[123.1245,13.0403],[123.1194,13.0555],[123.1106,13.0723],[123.1046,13.0877],[123.1008,13.0957],[123.0985,13.1036],[123.0954,13.1078],[123.0863,13.1246]]}},{"type":"Feature","properties":{"source":"Bacud (1997, Revised) Tectonic Map","category":"Class 2","mechanism":null,"description":null,"length_m":3742.6},"geometry":{"type":"LineString","coordinates":[[123.1251,13.0915],[123.1331,13.0784],[123.1331,13.071],[123.1377,13.0608]]}},{"type":"Feature","properties":{"source":"Bacud (1997, Revised) Tectonic Map","category":"Class 2","mechanism":null,"description":null,"length_m":1900.7},"geometry":{"type":"LineString","coordinates":[[123.1567,13.0554],[123.1597,13.0437],[123.1612,13.0388]]}},{"type":"Feature","properties":{"source":"Bacud (1997, Revised) Tectonic Map","category":"Class 2","mechanism":null,"description":null,"length_m":933.1},"geometry":{"type":"LineString","coordinates":[[123.1632,13.0603],[123.1702,13.0554]]}},{"type":"Feature","properties":{"source":"Bacud (1997, Revised) Tectonic Map","category":"Class 2","mechanism":null,"description":null,"length_m":4515.6},"geometry":{"type":"LineString","coordinates":[[123.1758,13.0696],[123.1853,13.0603],[123.1908,13.0525],[123.1983,13.0359]]}},{"type":"Feature","properties":{"source":"Bacud (1997, Revised) Tectonic Map","category":"Class 2","mechanism":null,"description":null,"length_m":1477.2},"geometry":{"type":"LineString","coordinates":[[123.2058,13.0359],[123.1988,13.0412],[123.1948,13.0437]]}},{"type":"Feature","properties":{"source":"Bacud (1997, Revised) Tectonic Map","category":"Class 2","mechanism":null,"description":null,"length_m":875.0},"geometry":{"type":"LineString","coordinates":[[123.2023,13.0486],[123.2093,13.0447]]}},{"type":"Feature","properties":{"source":"Bacud (1997, Revised) Tectonic Map","category":"Class 2","mechanism":null,"description":null,"length_m":3655.9},"geometry":{"type":"LineString","coordinates":[[123.2565,13.0632],[123.252,13.0657],[123.2284,13.0745],[123.2254,13.073]]}},{"type":"Feature","properties":{"source":"Bacud (1997, Revised) Tectonic Map","category":"Class 2","mechanism":null,"description":null,"length_m":2644.4},"geometry":{"type":"LineString","coordinates":[[123.2179,13.1003],[123.2204,13.092],[123.2259,13.0828],[123.2294,13.0798]]}},{"type":"Feature","properties":{"source":"Bacud (1997, Revised) Tectonic Map","category":"Class 2","mechanism":null,"description":null,"length_m":3672.4},"geometry":{"type":"LineString","coordinates":[[123.2144,13.073],[123.2063,13.0701],[123.1933,13.0725],[123.1818,13.0759]]}},{"type":"Feature","properties":{"source":"Bacud (1997, Revised) Tectonic Map","category":"Class 2","mechanism":null,"description":null,"length_m":1248.6},"geometry":{"type":"LineString","coordinates":[[123.1326,13.0881],[123.1422,13.0818]]}},{"type":"Feature","properties":{"source":"Bacud (1997, Revised) Tectonic Map","category":"Class 2","mechanism":null,"description":null,"length_m":1599.1},"geometry":{"type":"LineString","coordinates":[[123.2114,13.0823],[123.2033,13.0837],[123.1968,13.0847]]}},{"type":"Feature","properties":{"source":"Bacud (1997, Revised) Tectonic Map","category":"Class 2","mechanism":null,"description":null,"length_m":9790.2},"geometry":{"type":"LineString","coordinates":[[123.1978,13.0779],[123.1778,13.0832],[123.1547,13.0901],[123.1382,13.0954],[123.1271,13.1003],[123.1156,13.1111]]}},{"type":"Feature","properties":{"source":"Bacud (1997, Revised) Tectonic Map","category":"Class 2","mechanism":null,"description":null,"length_m":1291.1},"geometry":{"type":"LineString","coordinates":[[123.2093,13.113],[123.1978,13.116]]}},{"type":"Feature","properties":{"source":"Bacud (1997, Revised) Tectonic Map","category":"Class 2","mechanism":null,"description":null,"length_m":2792.5},"geometry":{"type":"LineString","coordinates":[[123.1963,13.1042],[123.1863,13.1047],[123.1803,13.1033],[123.1707,13.1033]]}},{"type":"Feature","properties":{"source":"Bacud (1997, Revised) Tectonic Map","category":"Class 2","mechanism":null,"description":null,"length_m":4645.4},"geometry":{"type":"LineString","coordinates":[[123.1562,13.1028],[123.1442,13.1062],[123.1362,13.1111],[123.1256,13.1218],[123.1221,13.1262]]}},{"type":"Feature","properties":{"source":"Bacud (1997, Revised) Tectonic Map","category":"Class 2","mechanism":null,"description":null,"length_m":1037.9},"geometry":{"type":"LineString","coordinates":[[123.1783,13.1389],[123.1853,13.1394],[123.1858,13.1369]]}},{"type":"Feature","properties":{"source":"Bacud (1997, Revised) Tectonic Map","category":"Class 2","mechanism":null,"description":null,"length_m":4002.3},"geometry":{"type":"LineString","coordinates":[[123.1251,13.1369],[123.1241,13.1282],[123.1196,13.1189],[123.1141,13.113],[123.1086,13.1057]]}},{"type":"Feature","properties":{"source":"Bacud (1997, Revised) Tectonic Map","category":"Class 2","mechanism":null,"description":null,"length_m":4146.0},"geometry":{"type":"LineString","coordinates":[[123.1963,12.9992],[123.2063,12.9963],[123.2154,12.9929],[123.2254,12.9919],[123.2334,12.9919]]}},{"type":"Feature","properties":{"source":"Bacud (1997, Revised) Tectonic Map","category":"Class 2","mechanism":null,"description":null,"length_m":1597.2},"geometry":{"type":"LineString","coordinates":[[123.2314,13.0095],[123.2339,13.0051],[123.2399,12.9978]]}},{"type":"Feature","properties":{"source":"Bacud (1997, Revised) Tectonic Map","category":"Class 2","mechanism":null,"description":null,"length_m":846.9},"geometry":{"type":"LineString","coordinates":[[123.2439,13.0154],[123.25,13.0105]]}},{"type":"Feature","properties":{"source":"Bacud (1997, Revised) Tectonic Map","category":"Class 1","mechanism":null,"description":null,"length_m":28720.8},"geometry":{"type":"LineString","coordinates":[[123.1106,13.093],[123.1076,13.1064],[123.1046,13.114],[123.0986,13.1233],[123.0878,13.1418],[123.0717,13.1594],[123.0602,13.174],[123.0507,13.1867],[123.0447,13.2026],[123.0414,13.215],[123.0346,13.2209],[123.0241,13.229],[123.0171,13.2402],[123.0146,13.2538],[123.0186,13.2685],[123.0186,13.276],[123.0168,13.2817],[123.0096,13.286],[123.0081,13.2938],[123.0056,13.3048],[123.0056,13.3107],[123.0003,13.3153]]}},{"type":"Feature","properties":{"source":"Bacud (1997, Revised) Tectonic Map","category":"Class 1","mechanism":null,"description":null,"length_m":20151.5},"geometry":{"type":"LineString","coordinates":[[123.0148,13.3236],[123.0219,13.3043],[123.0259,13.2843],[123.0269,13.2714],[123.0296,13.2585],[123.0344,13.2482],[123.0374,13.2365],[123.0454,13.2287],[123.0509,13.2243],[123.0534,13.2172],[123.0514,13.2053],[123.0502,13.1833],[123.0549,13.1697],[123.0612,13.1599],[123.0645,13.1545]]}},{"type":"Feature","properties":{"source":"Bacud (1997, Revised) Tectonic Map","category":"Class 1","mechanism":null,"description":null,"length_m":22024.8},"geometry":{"type":"LineString","coordinates":[[123.0447,13.195],[123.0417,13.2146],[123.0384,13.2236],[123.0349,13.2319],[123.0344,13.2404],[123.0366,13.247],[123.0394,13.2512],[123.0369,13.2587],[123.0344,13.2685],[123.0354,13.2809],[123.0319,13.2886],[123.0281,13.2942],[123.0301,13.3018],[123.0304,13.3076],[123.0289,13.313],[123.0241,13.3201],[123.0199,13.3332],[123.0103,13.3574],[123.0081,13.3649],[123.0063,13.3688],[123.0011,13.3742],[122.9958,13.3801]]}},{"type":"Feature","properties":{"source":"Bacud (1997, Revised) Tectonic Map","category":"Class 2","mechanism":null,"description":null,"length_m":3643.6},"geometry":{"type":"LineString","coordinates":[[122.983,13.3837],[122.9873,13.3788],[122.9908,13.3737],[122.9945,13.3664],[122.9988,13.3596],[123.0003,13.3557]]}},{"type":"Feature","properties":{"source":"Bacud (1997, Revised) Tectonic Map","category":"Class 2","mechanism":null,"description":null,"length_m":1726.7},"geometry":{"type":"LineString","coordinates":[[123.0334,13.364],[123.0361,13.3647],[123.0407,13.3669],[123.0447,13.3669],[123.0487,13.3674]]}},{"type":"Feature","properties":{"source":"Bacud (1997, Revised) Tectonic Map","category":"Class 2","mechanism":null,"description":null,"length_m":3653.4},"geometry":{"type":"LineString","coordinates":[[123.0715,13.381],[123.0715,13.3645],[123.0722,13.3579],[123.0768,13.3491]]}},{"type":"Feature","properties":{"source":"Bacud (1997, Revised) Tectonic Map","category":"Class 2","mechanism":null,"description":null,"length_m":7733.8},"geometry":{"type":"LineString","coordinates":[[123.0798,13.2122],[123.0845,13.2071],[123.0898,13.2003],[123.0963,13.193],[123.1031,13.1861],[123.1093,13.1783],[123.1204,13.1715],[123.1259,13.1656],[123.1294,13.1627]]}},{"type":"Feature","properties":{"source":"Bacud (1997, Revised) Tectonic Map","category":"Class 2","mechanism":null,"description":null,"length_m":3474.8},"geometry":{"type":"LineString","coordinates":[[123.1259,13.1695],[123.1234,13.1756],[123.1184,13.1837],[123.1111,13.1974]]}},{"type":"Feature","properties":{"source":"Bacud (1997, Revised) Tectonic Map","category":"Class 2","mechanism":null,"description":null,"length_m":1752.9},"geometry":{"type":"LineString","coordinates":[[123.0863,13.2218],[123.0903,13.2222],[123.0991,13.2247],[123.1021,13.2249]]}},{"type":"Feature","properties":{"source":"Bacud (1997, Revised) Tectonic Map","category":"Class 2","mechanism":null,"description":null,"length_m":4289.9},"geometry":{"type":"LineString","coordinates":[[123.1043,13.2218],[123.1068,13.2174],[123.1098,13.2135],[123.1159,13.2071],[123.1224,13.1983],[123.1291,13.1917]]}},{"type":"Feature","properties":{"source":"Bacud (1997, Revised) Tectonic Map","category":"Class 2","mechanism":null,"description":null,"length_m":3374.8},"geometry":{"type":"LineString","coordinates":[[123.1492,13.2379],[123.1535,13.2232],[123.158,13.2086]]}},{"type":"Feature","properties":{"source":"Bacud (1997, Revised) Tectonic Map","category":"Class 2","mechanism":null,"description":null,"length_m":2116.5},"geometry":{"type":"LineString","coordinates":[[123.1625,13.2127],[123.162,13.2047],[123.165,13.1971],[123.1662,13.1944]]}},{"type":"Feature","properties":{"source":"Bacud (1997, Revised) Tectonic Map","category":"Class 2","mechanism":null,"description":null,"length_m":1943.2},"geometry":{"type":"LineString","coordinates":[[123.181,13.2193],[123.1808,13.2017]]}},{"type":"Feature","properties":{"source":"Bacud (1997, Revised) Tectonic Map","category":"Class 1","mechanism":null,"description":null,"length_m":3819.0},"geometry":{"type":"LineString","coordinates":[[123.0808,12.9383],[123.0562,12.9544],[123.0522,12.9583]]}},{"type":"Feature","properties":{"source":"Bacud (1997, Revised) Tectonic Map","category":"Class 1","mechanism":null,"description":null,"length_m":10058.0},"geometry":{"type":"LineString","coordinates":[[123.0311,12.974],[123.0051,12.9867],[122.992,12.9959],[122.971,13.0126],[122.9584,13.0238],[122.9559,13.0262]]}},{"type":"Feature","properties":{"source":"Bacud (1997, Revised) Tectonic Map","category":"Class 1","mechanism":null,"description":null,"length_m":996.3},"geometry":{"type":"LineString","coordinates":[[122.9444,13.0365],[122.9364,13.0409]]}},{"type":"Feature","properties":{"source":"Bacud (1997, Revised) Tectonic Map","category":"Class 1","mechanism":null,"description":null,"length_m":13512.4},"geometry":{"type":"LineString","coordinates":[[123.1003,13.2196],[123.0993,13.2313],[123.1023,13.2415],[123.1098,13.2513],[123.1154,13.261],[123.1239,13.2732],[123.1274,13.2796],[123.1279,13.2849],[123.1234,13.2898],[123.1103,13.2981],[123.1038,13.3035],[123.1018,13.3059],[123.0948,13.3201]]}},{"type":"Feature","properties":{"source":"Bacud (1997, Revised) Tectonic Map","category":"Class 2","mechanism":null,"description":null,"length_m":2482.9},"geometry":{"type":"LineString","coordinates":[[123.1259,13.3196],[123.1259,13.3123],[123.1254,13.301],[123.1254,13.2971]]}},{"type":"Feature","properties":{"source":"Bacud (1997, Revised) Tectonic Map","category":"Class 2","mechanism":null,"description":null,"length_m":1295.9},"geometry":{"type":"LineString","coordinates":[[123.1118,13.3176],[123.1123,13.3059]]}},{"type":"Feature","properties":{"source":"Bacud (1997, Revised) Tectonic Map","category":"Class 2","mechanism":null,"description":null,"length_m":11032.5},"geometry":{"type":"LineString","coordinates":[[123.0963,13.2391],[123.0913,13.244],[123.0848,13.2513],[123.0752,13.261],[123.0717,13.2713],[123.0697,13.2781],[123.0662,13.2859],[123.0592,13.2962],[123.0517,13.3059],[123.0482,13.3132],[123.0457,13.3235]]}},{"type":"Feature","properties":{"source":"Bacud (1997, Revised) Tectonic Map","category":"Class 2","mechanism":null,"description":null,"length_m":1147.6},"geometry":{"type":"LineString","coordinates":[[123.0091,13.2049],[123.0031,13.2135]]}},{"type":"Feature","properties":{"source":"Bacud (1997, Revised) Tectonic Map","category":"Class 2","mechanism":null,"description":null,"length_m":2669.0},"geometry":{"type":"LineString","coordinates":[[123.0003,13.2174],[122.9978,13.2196],[122.9958,13.2232],[122.9868,13.2374]]}},{"type":"Feature","properties":{"source":"Bacud (1997, Revised) Tectonic Map","category":"Class 2","mechanism":null,"description":null,"length_m":11761.2},"geometry":{"type":"LineString","coordinates":[[122.9702,13.2766],[122.9667,13.283],[122.9647,13.2874],[122.9647,13.293],[122.9657,13.2981],[122.9682,13.3054],[122.967,13.3171],[122.967,13.3286],[122.9657,13.3428],[122.965,13.3608],[122.963,13.3676],[122.9625,13.3723],[122.9604,13.3806]]}},{"type":"Feature","properties":{"source":"Bacud (1997, Revised) Tectonic Map","category":"Class 2","mechanism":null,"description":null,"length_m":1807.0},"geometry":{"type":"LineString","coordinates":[[122.9835,13.3074],[122.9813,13.3023],[122.9775,13.2981],[122.9765,13.293]]}},{"type":"Feature","properties":{"source":"Bacud (1997, Revised) Tectonic Map","category":"Class 1","mechanism":null,"description":null,"length_m":13211.4},"geometry":{"type":"LineString","coordinates":[[122.9171,13.0587],[122.9108,13.0655],[122.9008,13.0753],[122.896,13.0814],[122.8843,13.0914],[122.8745,13.1017],[122.8509,13.1319],[122.8464,13.1383],[122.8414,13.151]]}},{"type":"Feature","properties":{"source":"Bacud (1997, Revised) Tectonic Map","category":"Class 1","mechanism":null,"description":null,"length_m":35037.7},"geometry":{"type":"LineString","coordinates":[[122.8582,13.1144],[122.8416,13.1358],[122.8276,13.1554],[122.8271,13.1705],[122.8251,13.1798],[122.8201,13.1876],[122.8201,13.1949],[122.8226,13.2071],[122.8211,13.2247],[122.8181,13.2432],[122.8151,13.2637],[122.8131,13.2823],[122.8081,13.3096],[122.804,13.3242],[122.8,13.3379],[122.797,13.3671],[122.797,13.3803],[122.7955,13.3949],[122.7935,13.4057],[122.7918,13.4169]]}},{"type":"Feature","properties":{"source":"Bacud (1997, Revised) Tectonic Map","category":"Class 1","mechanism":null,"description":null,"length_m":5564.5},"geometry":{"type":"LineString","coordinates":[[122.6028,13.3652],[122.6142,13.3636],[122.6276,13.361],[122.6514,13.3503]]}},{"type":"Feature","properties":{"source":"Bacud (1997, Revised) Tectonic Map","category":"Class 2","mechanism":null,"description":null,"length_m":3731.4},"geometry":{"type":"LineString","coordinates":[[122.8326,13.1859],[122.8319,13.1925],[122.8321,13.1991],[122.8321,13.2056],[122.8294,13.2193]]}},{"type":"Feature","properties":{"source":"Bacud (1997, Revised) Tectonic Map","category":"Class 2","mechanism":null,"description":null,"length_m":16550.4},"geometry":{"type":"LineString","coordinates":[[122.8073,13.0729],[122.7862,13.1119],[122.7767,13.1363],[122.7722,13.1505],[122.7702,13.1642],[122.7697,13.1783],[122.7727,13.1895],[122.7742,13.2144]]}},{"type":"Feature","properties":{"source":"Bacud (1997, Revised) Tectonic Map","category":"Class 2","mechanism":null,"description":null,"length_m":4391.9},"geometry":{"type":"LineString","coordinates":[[122.7855,13.1786],[122.789,13.1727],[122.792,13.1646],[122.7953,13.1532],[122.798,13.1468],[122.802,13.1429]]}},{"type":"Feature","properties":{"source":"Bacud (1997, Revised) Tectonic Map","category":"Class 1","mechanism":null,"description":null,"length_m":9910.7},"geometry":{"type":"LineString","coordinates":[[122.6416,13.3528],[122.6406,13.3391],[122.6451,13.3191],[122.6461,13.2971],[122.6459,13.2852],[122.6471,13.2723],[122.6491,13.264]]}},{"type":"Feature","properties":{"source":"Bacud (1997, Revised) Tectonic Map","category":"Class 1","mechanism":null,"description":null,"length_m":6289.7},"geometry":{"type":"LineString","coordinates":[[122.5857,13.3438],[122.577,13.3673],[122.5727,13.3807],[122.5692,13.3982]]}},{"type":"Feature","properties":{"source":"Bacud (1997, Revised) Tectonic Map","category":"Class 1","mechanism":null,"description":null,"length_m":7123.9},"geometry":{"type":"LineString","coordinates":[[122.5298,13.3407],[122.5379,13.346],[122.5451,13.3502],[122.5506,13.3519],[122.5584,13.3587],[122.5649,13.3634],[122.5679,13.3674],[122.5681,13.3739],[122.5772,13.3811]]}},{"type":"Feature","properties":{"source":"Bacud (1997, Revised) Tectonic Map","category":"Class 2","mechanism":null,"description":null,"length_m":2781.5},"geometry":{"type":"LineString","coordinates":[[122.6595,13.1688],[122.645,13.1566],[122.6395,13.1532]]}},{"type":"Feature","properties":{"source":"Bacud (1997, Revised) Tectonic Map","category":"Class 2","mechanism":null,"description":null,"length_m":4403.5},"geometry":{"type":"LineString","coordinates":[[122.6268,13.1678],[122.6481,13.143],[122.6508,13.1361]]}},{"type":"Feature","properties":{"source":"Bacud (1997, Revised) Tectonic Map","category":"Class 2","mechanism":null,"description":null,"length_m":3822.3},"geometry":{"type":"LineString","coordinates":[[122.6565,13.2524],[122.6381,13.2581],[122.6227,13.2621]]}},{"type":"Feature","properties":{"source":"Bacud (1997, Revised) Tectonic Map","category":"Class 2","mechanism":null,"description":null,"length_m":6934.0},"geometry":{"type":"LineString","coordinates":[[122.612,13.2427],[122.6197,13.2415],[122.6322,13.2415],[122.6495,13.2418],[122.67,13.2412],[122.6759,13.2406]]}},{"type":"Feature","properties":{"source":"Bacud (1997, Revised) Tectonic Map","category":"Class 1","mechanism":null,"description":null,"length_m":16246.9},"geometry":{"type":"LineString","coordinates":[[122.781,13.1058],[122.77,13.1217],[122.7692,13.1293],[122.7647,13.1415],[122.7557,13.1529],[122.7471,13.1656],[122.7381,13.172],[122.7251,13.1803],[122.7178,13.1815],[122.7111,13.183],[122.6953,13.1937],[122.6892,13.202],[122.6832,13.2078]]}},{"type":"Feature","properties":{"source":"Bacud (1997, Revised) Tectonic Map","category":"Class 2","mechanism":null,"description":null,"length_m":3393.8},"geometry":{"type":"LineString","coordinates":[[122.6667,13.2425],[122.6745,13.2335],[122.686,13.2183]]}},{"type":"Feature","properties":{"source":"Bacud (1997, Revised) Tectonic Map","category":"Class 2","mechanism":null,"description":null,"length_m":2152.7},"geometry":{"type":"LineString","coordinates":[[122.6436,13.222],[122.6504,13.2108],[122.6554,13.2066]]}},{"type":"Feature","properties":{"source":"Bacud (1997, Revised) Tectonic Map","category":"Class 2","mechanism":null,"description":null,"length_m":3314.3},"geometry":{"type":"LineString","coordinates":[[122.674,13.1542],[122.683,13.1502],[122.6985,13.1368]]}},{"type":"Feature","properties":{"source":"Bacud (1997, Revised) Tectonic Map","category":"Class 2","mechanism":null,"description":null,"length_m":8915.2},"geometry":{"type":"LineString","coordinates":[[122.6684,13.2059],[122.6805,13.193],[122.6938,13.1822],[122.701,13.1766],[122.703,13.1683],[122.7098,13.1625],[122.7186,13.1554],[122.7246,13.149]]}},{"type":"Feature","properties":{"source":"Bacud (1997, Revised) Tectonic Map","category":"Class 2","mechanism":null,"description":null,"length_m":9144.3},"geometry":{"type":"LineString","coordinates":[[122.703,13.224],[122.708,13.2169],[122.7148,13.2069],[122.7201,13.2],[122.7271,13.1993],[122.7364,13.1986],[122.7431,13.1947],[122.7469,13.1883],[122.7494,13.1844],[122.7564,13.1808],[122.7614,13.1793],[122.7637,13.1749]]}},{"type":"Feature","properties":{"source":"Bacud (1997, Revised) Tectonic Map","category":"Class 1","mechanism":null,"description":null,"length_m":17647.7},"geometry":{"type":"LineString","coordinates":[[122.8253,13.245],[122.8243,13.2645],[122.8223,13.2816],[122.8198,13.2952],[122.8153,13.3137],[122.8143,13.324],[122.8113,13.3318],[122.8113,13.3435],[122.8083,13.3528],[122.8113,13.3611],[122.8218,13.3874],[122.8233,13.4001]]}},{"type":"Feature","properties":{"source":"Bacud (1997, Revised) Tectonic Map","category":"Class 2","mechanism":null,"description":null,"length_m":4143.4},"geometry":{"type":"LineString","coordinates":[[122.843,13.2346],[122.85,13.2249],[122.8595,13.2112],[122.863,13.2029]]}},{"type":"Feature","properties":{"source":"Bacud (1997, Revised) Tectonic Map","category":"Class 1","mechanism":null,"description":null,"length_m":19252.4},"geometry":{"type":"LineString","coordinates":[[122.863,13.258],[122.8575,13.2649],[122.854,13.2756],[122.855,13.2868],[122.8475,13.3195],[122.843,13.3337],[122.842,13.3419],[122.842,13.3493],[122.8455,13.3566],[122.851,13.3644],[122.857,13.3697],[122.855,13.3771],[122.854,13.3849],[122.856,13.4014],[122.8605,13.4151],[122.8605,13.4219]]}},{"type":"Feature","properties":{"source":"Bacud (1997, Revised) Tectonic Map","category":"Class 1","mechanism":null,"description":null,"length_m":9699.5},"geometry":{"type":"LineString","coordinates":[[122.864,13.4112],[122.866,13.4234],[122.861,13.438],[122.854,13.4453],[122.8475,13.4507],[122.841,13.4634],[122.8395,13.4692],[122.8385,13.4746],[122.8334,13.4897]]}},{"type":"Feature","properties":{"source":"Bacud (1997, Revised) Tectonic Map","category":"Class 2","mechanism":null,"description":null,"length_m":5825.2},"geometry":{"type":"LineString","coordinates":[[122.8465,13.4053],[122.845,13.4127],[122.8445,13.4239],[122.839,13.4458],[122.8329,13.4556]]}},{"type":"Feature","properties":{"source":"Bacud (1997, Revised) Tectonic Map","category":"Class 2","mechanism":null,"description":null,"length_m":6055.0},"geometry":{"type":"LineString","coordinates":[[122.7888,13.2971],[122.7853,13.3127],[122.7838,13.3268],[122.7763,13.3502]]}},{"type":"Feature","properties":{"source":"Bacud (1997, Revised) Tectonic Map","category":"Class 2","mechanism":null,"description":null,"length_m":4085.6},"geometry":{"type":"LineString","coordinates":[[122.7487,13.2493],[122.756,13.2561],[122.7615,13.2619],[122.7685,13.2654],[122.7786,13.2712]]}},{"type":"Feature","properties":{"source":"Bacud (1997, Revised) Tectonic Map","category":"Class 2","mechanism":null,"description":null,"length_m":2232.6},"geometry":{"type":"LineString","coordinates":[[122.7605,13.2356],[122.7811,13.2371]]}},{"type":"Feature","properties":{"source":"Bacud (1997, Revised) Tectonic Map","category":"Class 2","mechanism":null,"description":null,"length_m":3134.8},"geometry":{"type":"LineString","coordinates":[[122.8698,13.217],[122.8648,13.2258],[122.8605,13.2388],[122.8598,13.2434]]}},{"type":"Feature","properties":{"source":"Bacud (1997, Revised) Tectonic Map","category":"Class 2","mechanism":null,"description":null,"length_m":3995.3},"geometry":{"type":"LineString","coordinates":[[122.8969,13.2668],[122.9051,13.2432],[122.9069,13.2322]]}},{"type":"Feature","properties":{"source":"Bacud (1997, Revised) Tectonic Map","category":"Class 2","mechanism":null,"description":null,"length_m":9273.1},"geometry":{"type":"LineString","coordinates":[[122.9385,13.3405],[122.9365,13.3512],[122.9254,13.3654],[122.9199,13.3732],[122.9189,13.3829],[122.9244,13.3941],[122.9244,13.4175]]}},{"type":"Feature","properties":{"source":"Bacud (1997, Revised) Tectonic Map","category":"Class 2","mechanism":null,"description":null,"length_m":4410.6},"geometry":{"type":"LineString","coordinates":[[122.9375,13.3588],[122.9362,13.3646],[122.9302,13.3722],[122.9269,13.381],[122.9312,13.3954]]}},{"type":"Feature","properties":{"source":"Bacud (1997, Revised) Tectonic Map","category":"Class 1","mechanism":null,"description":null,"length_m":22188.6},"geometry":{"type":"LineString","coordinates":[[122.9222,12.8884],[122.9342,12.8808],[122.9435,12.8742],[122.9593,12.8635],[122.9723,12.8591],[122.9961,12.8466],[123.0109,12.8354],[123.0159,12.8295],[123.0234,12.8224],[123.0405,12.8141],[123.054,12.8055],[123.061,12.7977],[123.0686,12.7914],[123.0761,12.7867],[123.0916,12.7794]]}},{"type":"Feature","properties":{"source":"Bacud (1997, Revised) Tectonic Map","category":"Class 2","mechanism":null,"description":null,"length_m":3815.5},"geometry":{"type":"LineString","coordinates":[[122.9262,12.8784],[122.9317,12.8779],[122.956,12.8613]]}},{"type":"Feature","properties":{"source":"Bacud (1997, Revised) Tectonic Map","category":"Class 2","mechanism":null,"description":null,"length_m":11899.4},"geometry":{"type":"LineString","coordinates":[[122.9563,12.8569],[122.9788,12.8412],[122.9931,12.8354],[123.0056,12.8268],[123.0152,12.8192],[123.035,12.8097],[123.0513,12.8051]]}},{"type":"Feature","properties":{"source":"Bacud (1997, Revised) Tectonic Map","category":"Class 2","mechanism":null,"description":null,"length_m":11342.9},"geometry":{"type":"LineString","coordinates":[[122.8615,12.8637],[122.8806,12.8534],[122.9016,12.8437],[122.9222,12.8358],[122.9282,12.8358],[122.9397,12.8314],[122.9548,12.8246],[122.9568,12.8231]]}},{"type":"Feature","properties":{"source":"Bacud (1997, Revised) Tectonic Map","category":"Class 2","mechanism":null,"description":null,"length_m":8506.0},"geometry":{"type":"LineString","coordinates":[[122.842,12.8515],[122.8558,12.842],[122.8688,12.8354],[122.8876,12.8278],[122.9114,12.8163]]}},{"type":"Feature","properties":{"source":"Bacud (1997, Revised) Tectonic Map","category":"Class 2","mechanism":null,"description":null,"length_m":2345.0},"geometry":{"type":"LineString","coordinates":[[123.0071,12.8161],[123.0031,12.8175],[122.9974,12.8222],[122.9888,12.827]]}},{"type":"Feature","properties":{"source":"Bacud (1997, Revised) Tectonic Map","category":"Class 2","mechanism":null,"description":null,"length_m":4020.3},"geometry":{"type":"LineString","coordinates":[[122.9723,12.8248],[122.9828,12.8212],[122.9979,12.8114],[123.0049,12.808]]}},{"type":"Feature","properties":{"source":"Bacud (1997, Revised) Tectonic Map","category":"Class 2","mechanism":null,"description":null,"length_m":3224.4},"geometry":{"type":"LineString","coordinates":[[122.9693,12.8234],[122.9741,12.8187],[122.9808,12.817],[122.9934,12.8073]]}},{"type":"Feature","properties":{"source":"Bacud (1997, Revised) Tectonic Map","category":"Class 1","mechanism":null,"description":null,"length_m":8468.9},"geometry":{"type":"LineString","coordinates":[[123.0365,12.8063],[123.0475,12.7948],[123.0605,12.784],[123.0796,12.7662],[123.0919,12.7525]]}},{"type":"Feature","properties":{"source":"Bacud (1997, Revised) Tectonic Map","category":"Class 1","mechanism":null,"description":null,"length_m":45841.4},"geometry":{"type":"LineString","coordinates":[[123.5824,13.2041],[123.5674,13.2114],[123.5333,13.2246],[123.4902,13.2412],[123.4721,13.2466],[123.3628,13.2997],[123.3122,13.328],[123.2884,13.3422],[123.2816,13.3449],[123.2646,13.3568],[123.2342,13.3736],[123.2067,13.3919]]}},{"type":"Feature","properties":{"source":"Bacud (1997, Revised) Tectonic Map","category":"Class 1","mechanism":null,"description":null,"length_m":10181.1},"geometry":{"type":"LineString","coordinates":[[123.3054,13.3305],[123.3089,13.2939],[123.3064,13.2646],[123.3044,13.2388]]}},{"type":"Feature","properties":{"source":"Bacud (1997, Revised) Tectonic Map","category":"Class 2","mechanism":null,"description":null,"length_m":3328.7},"geometry":{"type":"LineString","coordinates":[[123.2683,13.3229],[123.2698,13.3493],[123.2683,13.3527]]}},{"type":"Feature","properties":{"source":"Bacud (1997, Revised) Tectonic Map","category":"Class 1","mechanism":null,"description":null,"length_m":8058.0},"geometry":{"type":"LineString","coordinates":[[123.2596,13.3593],[123.2593,13.3441],[123.2545,13.3161],[123.2498,13.2946],[123.2478,13.2876]]}},{"type":"Feature","properties":{"source":"Bacud (1997, Revised) Tectonic Map","category":"Class 2","mechanism":null,"description":null,"length_m":13334.8},"geometry":{"type":"LineString","coordinates":[[123.2177,13.3234],[123.2362,13.2893],[123.2533,13.2693],[123.2693,13.2556],[123.2859,13.2331],[123.2904,13.2273]]}},{"type":"Feature","properties":{"source":"Bacud (1997, Revised) Tectonic Map","category":"Class 1","mechanism":null,"description":null,"length_m":41429.3},"geometry":{"type":"LineString","coordinates":[[123.329,13.2005],[123.338,13.189],[123.3425,13.1758],[123.354,13.1575],[123.3839,13.105],[123.3906,13.0918],[123.4052,13.0787],[123.4418,13.0494],[123.4616,13.0352],[123.4799,13.0174],[123.5019,12.9988],[123.5245,12.9783],[123.547,12.9605],[123.5721,12.9348],[123.5779,12.9294],[123.5816,12.927]]}},{"type":"Feature","properties":{"source":"Bacud (1997, Revised) Tectonic Map","category":"Class 2","mechanism":null,"description":null,"length_m":3393.3},"geometry":{"type":"LineString","coordinates":[[123.4621,13.0337],[123.4683,13.0164],[123.4721,13.0047]]}},{"type":"Feature","properties":{"source":"Bacud (1997, Revised) Tectonic Map","category":"Class 2","mechanism":null,"description":null,"length_m":4553.3},"geometry":{"type":"LineString","coordinates":[[123.4455,13.0462],[123.4526,13.0313],[123.4621,13.0135],[123.4621,13.0088]]}},{"type":"Feature","properties":{"source":"Bacud (1997, Revised) Tectonic Map","category":"Class 1","mechanism":null,"description":null,"length_m":18008.2},"geometry":{"type":"LineString","coordinates":[[123.542,12.939],[123.5205,12.9585],[123.5017,12.9766],[123.4874,12.9893],[123.4704,13.003],[123.4636,13.0086],[123.4365,13.0315],[123.4185,13.0476]]}},{"type":"Feature","properties":{"source":"Bacud (1997, Revised) Tectonic Map","category":"Class 2","mechanism":null,"description":null,"length_m":6226.0},"geometry":{"type":"LineString","coordinates":[[123.3891,13.0933],[123.3997,13.0728],[123.416,13.055],[123.4205,13.0467]]}},{"type":"Feature","properties":{"source":"Bacud (1997, Revised) Tectonic Map","category":"Class 2","mechanism":null,"description":null,"length_m":4694.3},"geometry":{"type":"LineString","coordinates":[[123.4059,13.1187],[123.4135,13.1031],[123.426,13.0811]]}},{"type":"Feature","properties":{"source":"Bacud (1997, Revised) Tectonic Map","category":"Class 1","mechanism":null,"description":null,"length_m":56839.0},"geometry":{"type":"LineString","coordinates":[[123.3227,13.3334],[123.2849,13.3566],[123.2758,13.3619],[123.2235,13.3922],[123.2064,13.4046],[123.1796,13.42],[122.8603,13.5757]]}},{"type":"Feature","properties":{"source":"Bacud (1997, Revised) Tectonic Map","category":"Class 2","mechanism":null,"description":null,"length_m":10059.4},"geometry":{"type":"LineString","coordinates":[[123.0941,13.4444],[123.1059,13.4368],[123.1187,13.4266],[123.133,13.4173],[123.147,13.4129],[123.1563,13.4105],[123.1623,13.4085],[123.1746,13.401]]}},{"type":"Feature","properties":{"source":"Bacud (1997, Revised) Tectonic Map","category":"Class 2","mechanism":null,"description":null,"length_m":12607.0},"geometry":{"type":"LineString","coordinates":[[122.9534,13.4245],[122.9629,13.4133],[122.9724,13.4089],[122.9805,13.406],[122.9902,13.4055],[122.998,13.4077],[123.006,13.4106],[123.0221,13.4096],[123.0424,13.406],[123.0521,13.4057],[123.0609,13.4021]]}},{"type":"Feature","properties":{"source":"Bacud (1997, Revised) Tectonic Map","category":"Class 2","mechanism":null,"description":null,"length_m":6732.9},"geometry":{"type":"LineString","coordinates":[[123.0008,13.3867],[122.9907,13.395],[122.9789,13.4013],[122.9712,13.4099],[122.9684,13.416],[122.9654,13.4208],[122.9614,13.4245],[122.9564,13.4274]]}},{"type":"Feature","properties":{"source":"Bacud (1997, Revised) Tectonic Map","category":"Class 2","mechanism":null,"description":null,"length_m":13172.3},"geometry":{"type":"LineString","coordinates":[[122.9669,13.4047],[122.9464,13.4259],[122.9417,13.4323],[122.9343,13.4397],[122.9195,13.449],[122.9084,13.4553],[122.903,13.4593],[122.8876,13.4747],[122.8793,13.4858]]}},{"type":"Feature","properties":{"source":"Bacud (1997, Revised) Tectonic Map","category":"Class 2","mechanism":null,"description":null,"length_m":13094.4},"geometry":{"type":"LineString","coordinates":[[122.8223,13.4163],[122.8198,13.4256],[122.8158,13.4363],[122.8108,13.4505],[122.8078,13.4607],[122.7997,13.4775],[122.7945,13.4992],[122.7932,13.5055],[122.7877,13.5111],[122.7807,13.5175],[122.7747,13.5219]]}},{"type":"Feature","properties":{"source":"Bacud (1997, Revised) Tectonic Map","category":"Class 2","mechanism":null,"description":null,"length_m":3090.4},"geometry":{"type":"LineString","coordinates":[[122.8085,13.3712],[122.8123,13.381],[122.8088,13.3922],[122.806,13.3973]]}},{"type":"Feature","properties":{"source":"Bacud (1997, Revised) Tectonic Map","category":"Class 2","mechanism":null,"description":null,"length_m":3191.2},"geometry":{"type":"LineString","coordinates":[[122.7769,13.3944],[122.7864,13.4217]]}},{"type":"Feature","properties":{"source":"Bacud (1997, Revised) Tectonic Map","category":"Class 2","mechanism":null,"description":null,"length_m":2919.5},"geometry":{"type":"LineString","coordinates":[[122.807,13.4105],[122.8002,13.4224],[122.7932,13.4331]]}},{"type":"Feature","properties":{"source":"Bacud (1997, Revised) Tectonic Map","category":"Class 2","mechanism":null,"description":null,"length_m":1955.7},"geometry":{"type":"LineString","coordinates":[[122.8005,13.437],[122.7887,13.4505]]}},{"type":"Feature","properties":{"source":"Bacud (1997, Revised) Tectonic Map","category":"Class 2","mechanism":null,"description":null,"length_m":15061.6},"geometry":{"type":"LineString","coordinates":[[122.7153,13.5535],[122.7285,13.5553],[122.7421,13.5518],[122.7501,13.5406],[122.7614,13.5255],[122.7671,13.5136],[122.7734,13.497],[122.7784,13.4853],[122.7839,13.4714],[122.7875,13.4595],[122.7905,13.4541]]}},{"type":"Feature","properties":{"source":"Bacud (1997, Revised) Tectonic Map","category":"Class 2","mechanism":null,"description":null,"length_m":8131.2},"geometry":{"type":"LineString","coordinates":[[122.7186,13.5595],[122.7331,13.5595],[122.7461,13.554],[122.7699,13.5359],[122.7779,13.532],[122.7843,13.5283]]}},{"type":"Feature","properties":{"source":"Bacud (1997, Revised) Tectonic Map","category":"Class 2","mechanism":null,"description":null,"length_m":6318.2},"geometry":{"type":"LineString","coordinates":[[122.695,13.5332],[122.7085,13.5434],[122.7245,13.5493],[122.7433,13.5512],[122.7486,13.5512]]}},{"type":"Feature","properties":{"source":"Bacud (1997, Revised) Tectonic Map","category":"Class 1","mechanism":null,"description":null,"length_m":14697.7},"geometry":{"type":"LineString","coordinates":[[122.5258,13.636],[122.5594,13.628],[122.5731,13.6224],[122.5924,13.6238],[122.627,13.6311],[122.6468,13.6316],[122.6586,13.6326]]}},{"type":"Feature","properties":{"source":"Bacud (1997, Revised) Tectonic Map","category":"Class 1","mechanism":null,"description":null,"length_m":3760.4},"geometry":{"type":"LineString","coordinates":[[122.6824,13.6409],[122.6975,13.6453],[122.7165,13.6462]]}},{"type":"Feature","properties":{"source":"Bacud (1997, Revised) Tectonic Map","category":"Class 1","mechanism":null,"description":null,"length_m":13652.3},"geometry":{"type":"LineString","coordinates":[[122.7431,13.6458],[122.7792,13.6462],[122.8218,13.6521],[122.8589,13.6589],[122.8679,13.6613]]}},{"type":"Feature","properties":{"source":"Bacud (1997, Revised) Tectonic Map","category":"Class 1","mechanism":null,"description":null,"length_m":27998.0},"geometry":{"type":"LineString","coordinates":[[122.8323,13.6604],[122.8915,13.6716],[122.9351,13.6823],[122.9702,13.6915],[123.0193,13.7174],[123.0394,13.7398],[123.0454,13.7529],[123.0584,13.7626]]}},{"type":"Feature","properties":{"source":"Bacud (1997, Revised) Tectonic Map","category":"Class 1","mechanism":null,"description":null,"length_m":51362.6},"geometry":{"type":"LineString","coordinates":[[122.3017,13.9752],[122.3373,13.9511],[122.3493,13.9377],[122.3541,13.9253],[122.3601,13.9185],[122.3724,13.9083],[122.4009,13.8852],[122.4125,13.8742],[122.416,13.8696],[122.4325,13.8494],[122.44,13.8414],[122.4684,13.8132],[122.4992,13.7808],[122.5611,13.7482],[122.6072,13.7199],[122.6438,13.6922],[122.6604,13.679]]}},{"type":"Feature","properties":{"source":"Bacud (1997, Revised) Tectonic Map","category":"Class 1","mechanism":null,"description":null,"length_m":57068.5},"geometry":{"type":"LineString","coordinates":[[122.2343,13.9988],[122.2498,13.9864],[122.2709,13.9779],[122.2884,13.9664],[122.312,13.9528],[122.329,13.9455],[122.3375,13.9397],[122.3628,13.9071],[122.3904,13.8769],[122.4213,13.8453],[122.4503,13.8205],[122.4724,13.7983],[122.4779,13.7915],[122.5162,13.7598],[122.5684,13.7262],[122.5822,13.7167],[122.6067,13.6995],[122.6275,13.6917],[122.6433,13.6822]]}},{"type":"Feature","properties":{"source":"Bacud (1997, Revised) Tectonic Map","category":"Class 1","mechanism":null,"description":null,"length_m":6758.1},"geometry":{"type":"LineString","coordinates":[[122.6749,13.6656],[122.6935,13.6378],[122.7045,13.6227],[122.7105,13.6154]]}},{"type":"Feature","properties":{"source":"Bacud (1997, Revised) Tectonic Map","category":"Class 1","mechanism":null,"description":null,"length_m":8719.4},"geometry":{"type":"LineString","coordinates":[[122.7902,13.5959],[122.7752,13.6028],[122.7561,13.613],[122.7255,13.6193],[122.7145,13.6198]]}},{"type":"Feature","properties":{"source":"Bacud (1997, Revised) Tectonic Map","category":"Class 2","mechanism":null,"description":null,"length_m":2769.9},"geometry":{"type":"LineString","coordinates":[[122.7491,13.6149],[122.7331,13.613],[122.725,13.6081]]}},{"type":"Feature","properties":{"source":"Bacud (1997, Revised) Tectonic Map","category":"Class 2","mechanism":null,"description":null,"length_m":13193.8},"geometry":{"type":"LineString","coordinates":[[122.7055,13.6145],[122.7326,13.592],[122.7646,13.573],[122.7957,13.536]]}},{"type":"Feature","properties":{"source":"Bacud (1997, Revised) Tectonic Map","category":"Class 2","mechanism":null,"description":null,"length_m":12301.9},"geometry":{"type":"LineString","coordinates":[[122.6945,13.6164],[122.7075,13.6052],[122.7306,13.592],[122.7722,13.5599],[122.7832,13.5477]]}},{"type":"Feature","properties":{"source":"Bacud (1997, Revised) Tectonic Map","category":"Class 2","mechanism":null,"description":null,"length_m":5278.8},"geometry":{"type":"LineString","coordinates":[[122.8027,13.5998],[122.8489,13.5842]]}},{"type":"Feature","properties":{"source":"Bacud (1997, Revised) Tectonic Map","category":"Class 2","mechanism":null,"description":null,"length_m":9688.8},"geometry":{"type":"LineString","coordinates":[[122.5701,13.8059],[122.5987,13.7976],[122.6203,13.7883],[122.6544,13.7762]]}},{"type":"Feature","properties":{"source":"Bacud (1997, Revised) Tectonic Map","category":"Class 1","mechanism":null,"description":null,"length_m":20667.3},"geometry":{"type":"LineString","coordinates":[[122.6534,13.7713],[122.6799,13.7197],[122.6935,13.6827],[122.7105,13.6666],[122.7466,13.6476],[122.7737,13.6456]]}},{"type":"Feature","properties":{"source":"Bacud (1997, Revised) Tectonic Map","category":"Class 1","mechanism":null,"description":null,"length_m":10208.2},"geometry":{"type":"LineString","coordinates":[[122.2473,13.9358],[122.2874,13.9085],[122.309,13.8896],[122.321,13.8784]]}},{"type":"Feature","properties":{"source":"Bacud (1997, Revised) Tectonic Map","category":"Class 1","mechanism":null,"description":null,"length_m":3857.2},"geometry":{"type":"LineString","coordinates":[[122.339,13.8638],[122.3646,13.8394]]}},{"type":"Feature","properties":{"source":"Bacud (1997, Revised) Tectonic Map","category":"Class 1","mechanism":null,"description":null,"length_m":13719.6},"geometry":{"type":"LineString","coordinates":[[122.3942,13.819],[122.4122,13.7995],[122.4323,13.782],[122.4654,13.7494],[122.4794,13.7387],[122.4864,13.7343]]}},{"type":"Feature","properties":{"source":"Bacud (1997, Revised) Tectonic Map","category":"Class 1","mechanism":null,"description":null,"length_m":3594.9},"geometry":{"type":"LineString","coordinates":[[122.5045,13.7206],[122.517,13.7129],[122.5305,13.706],[122.5335,13.7051]]}},{"type":"Feature","properties":{"source":"Bacud (1997, Revised) Tectonic Map","category":"Class 1","mechanism":null,"description":null,"length_m":13870.4},"geometry":{"type":"LineString","coordinates":[[122.5641,13.6997],[122.5952,13.6866],[122.6263,13.6715],[122.6368,13.6632],[122.6554,13.6447],[122.6669,13.6291]]}},{"type":"Feature","properties":{"source":"Bacud (1997, Revised) Tectonic Map","category":"Class 2","mechanism":null,"description":null,"length_m":6472.5},"geometry":{"type":"LineString","coordinates":[[122.5797,13.6505],[122.5912,13.6476],[122.5967,13.6432],[122.6047,13.6442],[122.6178,13.6505],[122.6323,13.6573],[122.6343,13.6568]]}},{"type":"Feature","properties":{"source":"Bacud (1997, Revised) Tectonic Map","category":"Class 2","mechanism":null,"description":null,"length_m":4960.7},"geometry":{"type":"LineString","coordinates":[[122.6759,13.6086],[122.6829,13.594],[122.6889,13.574],[122.692,13.5667]]}},{"type":"Feature","properties":{"source":"Bacud (1997, Revised) Tectonic Map","category":"Class 2","mechanism":null,"description":null,"length_m":3359.4},"geometry":{"type":"LineString","coordinates":[[122.7025,13.5803],[122.6839,13.6047]]}},{"type":"Feature","properties":{"source":"Bacud (1997, Revised) Tectonic Map","category":"Class 2","mechanism":null,"description":null,"length_m":5393.5},"geometry":{"type":"LineString","coordinates":[[122.7451,13.6057],[122.7511,13.6018],[122.7702,13.5901],[122.7882,13.5813]]}},{"type":"Feature","properties":{"source":"Bacud (1997, Revised) Tectonic Map","category":"Class 2","mechanism":null,"description":null,"length_m":7463.4},"geometry":{"type":"LineString","coordinates":[[122.7985,13.536],[122.8318,13.5204],[122.8469,13.5131],[122.8604,13.5063]]}},{"type":"Feature","properties":{"source":"Bacud (1997, Revised) Tectonic Map","category":"Class 2","mechanism":null,"description":null,"length_m":3733.5},"geometry":{"type":"LineString","coordinates":[[122.8501,13.5053],[122.8188,13.5194]]}},{"type":"Feature","properties":{"source":"Bacud (1997, Revised) Tectonic Map","category":"Class 2","mechanism":null,"description":null,"length_m":1967.1},"geometry":{"type":"LineString","coordinates":[[122.8173,13.5141],[122.8022,13.5241]]}},{"type":"Feature","properties":{"source":"Bacud (1997, Revised) Tectonic Map","category":"Class 2","mechanism":null,"description":null,"length_m":1308.3},"geometry":{"type":"LineString","coordinates":[[122.7902,13.5358],[122.7794,13.5411]]}},{"type":"Feature","properties":{"source":"Bacud (1997, Revised) Tectonic Map","category":"Class 2","mechanism":null,"description":null,"length_m":1132.0},"geometry":{"type":"LineString","coordinates":[[122.8042,13.5404],[122.7942,13.5433]]}},{"type":"Feature","properties":{"source":"Bacud (1997, Revised) Tectonic Map","category":"Class 2","mechanism":null,"description":null,"length_m":3960.7},"geometry":{"type":"LineString","coordinates":[[122.6396,13.7038],[122.6581,13.7043],[122.6762,13.7034]]}},{"type":"Feature","properties":{"source":"Bacud (1997, Revised) Tectonic Map","category":"Class 2","mechanism":null,"description":null,"length_m":1496.6},"geometry":{"type":"LineString","coordinates":[[122.709,13.716],[122.6952,13.7148]]}},{"type":"Feature","properties":{"source":"Bacud (1997, Revised) Tectonic Map","category":"Class 2","mechanism":null,"description":null,"length_m":2238.5},"geometry":{"type":"LineString","coordinates":[[122.7027,13.7241],[122.6822,13.7216]]}},{"type":"Feature","properties":{"source":"Bacud (1997, Revised) Tectonic Map","category":"Class 2","mechanism":null,"description":null,"length_m":1789.6},"geometry":{"type":"LineString","coordinates":[[122.7135,13.7073],[122.697,13.7077]]}},{"type":"Feature","properties":{"source":"Bacud (1997, Revised) Tectonic Map","category":"Class 2","mechanism":null,"description":null,"length_m":2383.7},"geometry":{"type":"LineString","coordinates":[[122.8822,13.457],[122.8807,13.4448],[122.8812,13.4356]]}},{"type":"Feature","properties":{"source":"Bacud (1997, Revised) Tectonic Map","category":"Class 2","mechanism":null,"description":null,"length_m":1778.2},"geometry":{"type":"LineString","coordinates":[[122.9744,13.4341],[122.9714,13.4249],[122.9719,13.4185]]}},{"type":"Feature","properties":{"source":"Bacud (1997, Revised) Tectonic Map","category":"Class 2","mechanism":null,"description":null,"length_m":1084.4},"geometry":{"type":"LineString","coordinates":[[122.7283,13.3093],[122.7273,13.319]]}},{"type":"Feature","properties":{"source":"Bacud (1997, Revised) Tectonic Map","category":"Class 2","mechanism":null,"description":null,"length_m":1240.5},"geometry":{"type":"LineString","coordinates":[[122.7243,13.3819],[122.7243,13.3932]]}},{"type":"Feature","properties":{"source":"Bacud (1997, Revised) Tectonic Map","category":"Class 2","mechanism":null,"description":null,"length_m":1143.9},"geometry":{"type":"LineString","coordinates":[[122.7233,13.4453],[122.7218,13.4556]]}},{"type":"Feature","properties":{"source":"Bacud (1997, Revised) Tectonic Map","category":"Class 2","mechanism":null,"description":null,"length_m":5893.3},"geometry":{"type":"LineString","coordinates":[[122.6952,13.013],[122.6852,13.0222],[122.6792,13.0305],[122.6789,13.0386],[122.6767,13.0481],[122.6696,13.0577]]}},{"type":"Feature","properties":{"source":"Bacud (1997, Revised) Tectonic Map","category":"Class 2","mechanism":null,"description":null,"length_m":13369.7},"geometry":{"type":"LineString","coordinates":[[122.6802,13.0611],[122.7123,13.0362],[122.721,13.0301],[122.7296,13.0203],[122.7403,13.011],[122.7574,12.9939],[122.7649,12.9903],[122.7719,12.9815]]}},{"type":"Feature","properties":{"source":"Bacud (1997, Revised) Tectonic Map","category":"Class 2","mechanism":null,"description":null,"length_m":2986.3},"geometry":{"type":"LineString","coordinates":[[122.6892,13.0535],[122.6872,13.0467],[122.6867,13.0381],[122.6882,13.0269]]}},{"type":"Feature","properties":{"source":"Bacud (1997, Revised) Tectonic Map","category":"Class 2","mechanism":null,"description":null,"length_m":8069.6},"geometry":{"type":"LineString","coordinates":[[122.7072,13.0808],[122.7153,13.0725],[122.7243,13.0642],[122.7291,13.0537],[122.7368,13.0445],[122.7468,13.034],[122.7561,13.0269]]}},{"type":"Feature","properties":{"source":"Bacud (1997, Revised) Tectonic Map","category":"Class 2","mechanism":null,"description":null,"length_m":2631.9},"geometry":{"type":"LineString","coordinates":[[122.6772,13.0225],[122.6837,13.0164],[122.6894,13.0095],[122.6942,13.0056]]}},{"type":"Feature","properties":{"source":"Bacud (1997, Revised) Tectonic Map","category":"Class 2","mechanism":null,"description":null,"length_m":2543.4},"geometry":{"type":"LineString","coordinates":[[122.7942,13.0545],[122.7782,13.0589],[122.7727,13.0628]]}},{"type":"Feature","properties":{"source":"Bacud (1997, Revised) Tectonic Map","category":"Class 2","mechanism":null,"description":null,"length_m":1955.6},"geometry":{"type":"LineString","coordinates":[[122.7907,13.0569],[122.7824,13.0594],[122.7764,13.0664]]}},{"type":"Feature","properties":{"source":"Bacud (1997, Revised) Tectonic Map","category":"Class 2","mechanism":null,"description":null,"length_m":925.8},"geometry":{"type":"LineString","coordinates":[[122.7867,13.0635],[122.7814,13.0701]]}},{"type":"Feature","properties":{"source":"Bacud (1997, Revised) Tectonic Map","category":"Class 2","mechanism":null,"description":null,"length_m":2660.1},"geometry":{"type":"LineString","coordinates":[[122.7499,13.0901],[122.7456,13.1016],[122.7438,13.1133]]}},{"type":"Feature","properties":{"source":"Bacud (1997, Revised) Tectonic Map","category":"Class 2","mechanism":null,"description":null,"length_m":3325.6},"geometry":{"type":"LineString","coordinates":[[122.8005,13.3983],[122.796,13.428]]}},{"type":"Feature","properties":{"source":"Bacud (1997, Revised) Tectonic Map","category":"Class 2","mechanism":null,"description":null,"length_m":1775.5},"geometry":{"type":"LineString","coordinates":[[122.8326,13.0848],[122.8225,13.0974]]}},{"type":"Feature","properties":{"source":"Bacud (1997, Revised) Tectonic Map","category":"Class 2","mechanism":null,"description":null,"length_m":22055.4},"geometry":{"type":"LineString","coordinates":[[122.3122,13.0174],[122.3077,13.0794],[122.3087,13.0935],[122.3057,13.1092],[122.3012,13.1282],[122.3032,13.137],[122.3027,13.1512],[122.2831,13.18],[122.2721,13.2078]]}},{"type":"Feature","properties":{"source":"Bacud (1997, Revised) Tectonic Map","category":"Class 2","mechanism":null,"description":null,"length_m":14313.0},"geometry":{"type":"LineString","coordinates":[[122.2776,13.1868],[122.2751,13.1736],[122.2771,13.1453],[122.2821,13.1258],[122.2851,13.1072],[122.2902,13.0906],[122.2972,13.0789],[122.3022,13.0672],[122.3037,13.0623]]}},{"type":"Feature","properties":{"source":"Bacud (1997, Revised) Tectonic Map","category":"Class 2","mechanism":null,"description":null,"length_m":4729.9},"geometry":{"type":"LineString","coordinates":[[122.1899,13.0911],[122.1949,13.0486]]}},{"type":"Feature","properties":{"source":"Bacud (1997, Revised) Tectonic Map","category":"Class 2","mechanism":null,"description":null,"length_m":5270.3},"geometry":{"type":"LineString","coordinates":[[122.1984,12.9915],[122.1939,13.0017],[122.1909,13.0149],[122.1904,13.0237],[122.1904,13.0379]]}},{"type":"Feature","properties":{"source":"Bacud (1997, Revised) Tectonic Map","category":"Class 2","mechanism":null,"description":null,"length_m":3715.9},"geometry":{"type":"LineString","coordinates":[[122.1719,13.0765],[122.1739,13.0633],[122.1769,13.0457],[122.1769,13.0432]]}},{"type":"Feature","properties":{"source":"Bacud (1997, Revised) Tectonic Map","category":"Class 2","mechanism":null,"description":null,"length_m":3224.9},"geometry":{"type":"LineString","coordinates":[[122.1683,13.0257],[122.1663,13.0364],[122.1638,13.0545]]}},{"type":"Feature","properties":{"source":"Bacud (1997, Revised) Tectonic Map","category":"Class 2","mechanism":null,"description":null,"length_m":8470.7},"geometry":{"type":"LineString","coordinates":[[123.0722,13.5777],[123.0637,13.5701],[123.0539,13.5453],[123.0461,13.5228],[123.0416,13.5085]]}},{"type":"Feature","properties":{"source":"Bacud (1997, Revised) Tectonic Map","category":"Class 2","mechanism":null,"description":null,"length_m":4193.2},"geometry":{"type":"LineString","coordinates":[[123.0852,13.5316],[123.0842,13.518],[123.0727,13.4965]]}},{"type":"Feature","properties":{"source":"Bacud (1997, Revised) Tectonic Map","category":"Class 2","mechanism":null,"description":null,"length_m":2116.2},"geometry":{"type":"LineString","coordinates":[[123.1672,13.5365],[123.1476,13.537]]}},{"type":"Feature","properties":{"source":"Bacud (1997, Revised) Tectonic Map","category":"Class 2","mechanism":null,"description":null,"length_m":1912.1},"geometry":{"type":"LineString","coordinates":[[122.7195,13.7391],[122.7065,13.7508]]}},{"type":"Feature","properties":{"source":"Bacud (1997, Revised) Tectonic Map","category":"Class 2","mechanism":null,"description":null,"length_m":1067.0},"geometry":{"type":"LineString","coordinates":[[122.5606,13.7796],[122.5521,13.7844]]}},{"type":"Feature","properties":{"source":"Bacud (1997, Revised) Tectonic Map","category":"Class 2","mechanism":null,"description":null,"length_m":2065.2},"geometry":{"type":"LineString","coordinates":[[122.5987,13.8132],[122.5797,13.8146]]}},{"type":"Feature","properties":{"source":"Bacud (1997, Revised) Tectonic Map","category":"Class 2","mechanism":null,"description":null,"length_m":2050.5},"geometry":{"type":"LineString","coordinates":[[122.5967,13.8073],[122.5782,13.8112]]}},{"type":"Feature","properties":{"source":"Bacud (1997, Revised) Tectonic Map","category":"Class 2","mechanism":null,"description":null,"length_m":1485.1},"geometry":{"type":"LineString","coordinates":[[122.5501,13.7903],[122.5616,13.783]]}},{"type":"Feature","properties":{"source":"Bacud (1997, Revised) Tectonic Map","category":"Class 2","mechanism":null,"description":null,"length_m":1267.5},"geometry":{"type":"LineString","coordinates":[[122.5777,13.7937],[122.5666,13.7976]]}},{"type":"Feature","properties":{"source":"Bacud (1997, Revised) Tectonic Map","category":"Class 2","mechanism":null,"description":null,"length_m":1406.2},"geometry":{"type":"LineString","coordinates":[[122.6117,13.781],[122.6243,13.7776]]}},{"type":"Feature","properties":{"source":"Bacud (1997, Revised) Tectonic Map","category":"Class 2","mechanism":null,"description":null,"length_m":2683.0},"geometry":{"type":"LineString","coordinates":[[122.7218,13.6734],[122.7463,13.67]]}},{"type":"Feature","properties":{"source":"Bacud (1997, Revised) Tectonic Map","category":"Class 2","mechanism":null,"description":null,"length_m":2389.0},"geometry":{"type":"LineString","coordinates":[[122.6691,13.6902],[122.6471,13.6914]]}},{"type":"Feature","properties":{"source":"Bacud (1997, Revised) Tectonic Map","category":"Class 2","mechanism":null,"description":null,"length_m":1572.8},"geometry":{"type":"LineString","coordinates":[[122.6441,13.7131],[122.6295,13.7136]]}},{"type":"Feature","properties":{"source":"Bacud (1997, Revised) Tectonic Map","category":"Class 2","mechanism":null,"description":null,"length_m":4759.9},"geometry":{"type":"LineString","coordinates":[[122.818,13.5801],[122.8606,13.5694]]}},{"type":"Feature","properties":{"source":"Bacud (1997, Revised) Tectonic Map","category":"Class 2","mechanism":null,"description":null,"length_m":2360.6},"geometry":{"type":"LineString","coordinates":[[122.8591,13.5757],[122.8381,13.5813]]}},{"type":"Feature","properties":{"source":"Bacud (1997, Revised) Tectonic Map","category":"Class 2","mechanism":null,"description":null,"length_m":1611.1},"geometry":{"type":"LineString","coordinates":[[122.823,13.6059],[122.809,13.6108]]}},{"type":"Feature","properties":{"source":"Bacud (1997, Revised) Tectonic Map","category":"Class 2","mechanism":null,"description":null,"length_m":1578.3},"geometry":{"type":"LineString","coordinates":[[122.8095,13.6201],[122.7955,13.624]]}},{"type":"Feature","properties":{"source":"Bacud (1997, Revised) Tectonic Map","category":"Class 2","mechanism":null,"description":null,"length_m":2314.5},"geometry":{"type":"LineString","coordinates":[[122.8045,13.6288],[122.7844,13.6361]]}},{"type":"Feature","properties":{"source":"Bacud (1997, Revised) Tectonic Map","category":"Class 2","mechanism":null,"description":null,"length_m":2093.3},"geometry":{"type":"LineString","coordinates":[[122.6762,13.5738],[122.6722,13.5923]]}},{"type":"Feature","properties":{"source":"Bacud (1997, Revised) Tectonic Map","category":"Class 2","mechanism":null,"description":null,"length_m":1725.1},"geometry":{"type":"LineString","coordinates":[[122.6666,13.6084],[122.6661,13.624]]}},{"type":"Feature","properties":{"source":"Bacud (1997, Revised) Tectonic Map","category":"Class 2","mechanism":null,"description":null,"length_m":1902.8},"geometry":{"type":"LineString","coordinates":[[122.5508,13.6447],[122.5556,13.6612]]}},{"type":"Feature","properties":{"source":"Bacud (1997, Revised) Tectonic Map","category":"Class 2","mechanism":null,"description":null,"length_m":1849.5},"geometry":{"type":"LineString","coordinates":[[122.5521,13.6702],[122.5576,13.6861]]}},{"type":"Feature","properties":{"source":"Bacud (1997, Revised) Tectonic Map","category":"Class 2","mechanism":null,"description":null,"length_m":3143.3},"geometry":{"type":"LineString","coordinates":[[122.5228,13.6749],[122.5313,13.689],[122.535,13.7004]]}},{"type":"Feature","properties":{"source":"Bacud (1997, Revised) Tectonic Map","category":"Class 2","mechanism":null,"description":null,"length_m":1423.2},"geometry":{"type":"LineString","coordinates":[[122.514,13.6897],[122.52,13.7012]]}},{"type":"Feature","properties":{"source":"Bacud (1997, Revised) Tectonic Map","category":"Class 2","mechanism":null,"description":null,"length_m":888.9},"geometry":{"type":"LineString","coordinates":[[122.5245,13.6481],[122.5245,13.6561]]}},{"type":"Feature","properties":{"source":"Bacud (1997, Revised) Tectonic Map","category":"Class 2","mechanism":null,"description":null,"length_m":1194.1},"geometry":{"type":"LineString","coordinates":[[122.5428,13.6778],[122.5476,13.6875]]}},{"type":"Feature","properties":{"source":"Bacud (1997, Revised) Tectonic Map","category":"Class 2","mechanism":null,"description":null,"length_m":1426.7},"geometry":{"type":"LineString","coordinates":[[122.531,13.6539],[122.5335,13.6666]]}},{"type":"Feature","properties":{"source":"Bacud (1997, Revised) Tectonic Map","category":"Class 2","mechanism":null,"description":null,"length_m":969.8},"geometry":{"type":"LineString","coordinates":[[122.7316,13.6349],[122.7316,13.6437]]}},{"type":"Feature","properties":{"source":"Bacud (1997, Revised) Tectonic Map","category":"Class 2","mechanism":null,"description":null,"length_m":8793.3},"geometry":{"type":"LineString","coordinates":[[122.2365,13.3719],[122.3172,13.3807]]}},{"type":"Feature","properties":{"source":"Bacud (1997, Revised) Tectonic Map","category":"Class 2","mechanism":null,"description":null,"length_m":3079.1},"geometry":{"type":"LineString","coordinates":[[122.1934,13.3895],[122.1989,13.3622]]}},{"type":"Feature","properties":{"source":"Bacud (1997, Revised) Tectonic Map","category":"Class 2","mechanism":null,"description":null,"length_m":2852.1},"geometry":{"type":"LineString","coordinates":[[122.3007,13.309],[122.3117,13.2856]]}},{"type":"Feature","properties":{"source":"Bacud (1997, Revised) Tectonic Map","category":"Class 2","mechanism":null,"description":null,"length_m":2544.3},"geometry":{"type":"LineString","coordinates":[[122.2877,13.2771],[122.2806,13.299]]}},{"type":"Feature","properties":{"source":"Bacud (1997, Revised) Tectonic Map","category":"Class 2","mechanism":null,"description":null,"length_m":3391.0},"geometry":{"type":"LineString","coordinates":[[122.2656,13.2671],[122.2548,13.2958]]}},{"type":"Feature","properties":{"source":"Bacud (1997, Revised) Tectonic Map","category":"Class 2","mechanism":null,"description":null,"length_m":4413.5},"geometry":{"type":"LineString","coordinates":[[122.3516,13.33],[122.3639,13.2919]]}},{"type":"Feature","properties":{"source":"Bacud (1997, Revised) Tectonic Map","category":"Class 1","mechanism":null,"description":null,"length_m":24385.2},"geometry":{"type":"LineString","coordinates":[[122.5596,13.927],[122.5945,13.9406],[122.6167,13.9489],[122.6325,13.9518],[122.6564,13.9576],[122.6852,13.9618],[122.7561,13.9899],[122.7722,13.9981]]}},{"type":"Feature","properties":{"source":"Bacud (1997, Revised) Tectonic Map","category":"Class 1","mechanism":null,"description":null,"length_m":19510.0},"geometry":{"type":"LineString","coordinates":[[121.8881,13.4201],[121.8927,13.3971],[121.8954,13.3816],[121.9054,13.3528],[121.9123,13.3289],[121.9145,13.3201],[121.9387,13.2873],[121.9355,13.255]]}}]}