{"type":"FeatureCollection","features":[{"type":"Feature","properties":{"source":"Austria et al. (2023)","mechanism":null,"description":null,"length_m":6767.3},"geometry":{"type":"LineString","coordinates":[[121.3745,13.6644],[121.3808,13.6706],[121.3874,13.6766],[121.3975,13.6851],[121.4045,13.6905],[121.4117,13.6957],[121.4228,13.7031]]}},{"type":"Feature","properties":{"source":"Austria et al. (2023)","mechanism":null,"description":null,"length_m":4315.9},"geometry":{"type":"LineString","coordinates":[[121.4491,13.7084],[121.4634,13.6992],[121.4726,13.6927],[121.4816,13.6859]]}},{"type":"Feature","properties":{"source":"Austria et al. (2023)","mechanism":null,"description":null,"length_m":3577.2},"geometry":{"type":"LineString","coordinates":[[121.4248,13.7414],[121.433,13.7368],[121.4413,13.7324],[121.454,13.7263]]}},{"type":"Feature","properties":{"source":"Austria et al. (2023)","mechanism":null,"description":null,"length_m":6917.9},"geometry":{"type":"LineString","coordinates":[[121.3372,13.7839],[121.3396,13.7846],[121.342,13.7845],[121.3442,13.7838],[121.3461,13.7825],[121.3471,13.7814],[121.3479,13.78],[121.3552,13.7722],[121.3621,13.7642],[121.3655,13.7601],[121.3681,13.7561],[121.3717,13.7516],[121.3765,13.7468],[121.3818,13.7426]]}},{"type":"Feature","properties":{"source":"Austria et al. (2023)","mechanism":null,"description":null,"length_m":15971.0},"geometry":{"type":"LineString","coordinates":[[121.3333,13.8007],[121.3353,13.7981],[121.3382,13.7948],[121.3413,13.7917],[121.3446,13.7888],[121.3472,13.7868],[121.3508,13.7843],[121.3536,13.7826],[121.3575,13.7806],[121.3659,13.7739],[121.3714,13.7692],[121.3766,13.7644],[121.3863,13.757],[121.3913,13.7536],[121.399,13.7487],[121.4052,13.7468],[121.41,13.745],[121.4159,13.7422],[121.4174,13.7414],[121.4183,13.7407],[121.4196,13.7391],[121.4203,13.7371],[121.4204,13.7354],[121.4201,13.7337],[121.4199,13.7316],[121.42,13.7284],[121.4208,13.7249],[121.4221,13.7215],[121.4225,13.7209],[121.4258,13.7165],[121.432,13.7094],[121.4337,13.7075],[121.4357,13.7059]]}},{"type":"Feature","properties":{"source":"Frias et al. (2019)","mechanism":"Normal","description":null,"length_m":4900.0},"geometry":{"type":"LineString","coordinates":[[121.0623,13.671],[121.067,13.6757],[121.0721,13.68],[121.0767,13.6832],[121.0918,13.6924],[121.095,13.695],[121.0978,13.6981]]}},{"type":"Feature","properties":{"source":"Frias et al. (2019)","mechanism":"Reverse","description":null,"length_m":21987.2},"geometry":{"type":"LineString","coordinates":[[121.2138,13.7553],[121.2165,13.7542],[121.2187,13.7527],[121.2206,13.7505],[121.222,13.748],[121.2225,13.746],[121.2227,13.7438],[121.2219,13.7422],[121.2213,13.7403],[121.2209,13.7384],[121.2208,13.7364],[121.2211,13.734],[121.2224,13.7321],[121.2243,13.7298],[121.2268,13.7274],[121.2291,13.7255],[121.2318,13.7238],[121.2337,13.722],[121.2355,13.7195],[121.2373,13.716],[121.2388,13.7142],[121.2408,13.7129],[121.2445,13.7116],[121.2468,13.7104],[121.2489,13.7089],[121.2512,13.7067],[121.2534,13.706],[121.2557,13.7057],[121.2655,13.7063],[121.2726,13.7063],[121.2777,13.7062],[121.2811,13.7057],[121.2851,13.7044],[121.2884,13.7025],[121.2925,13.701],[121.2965,13.6993],[121.3031,13.6961],[121.3091,13.6941],[121.3137,13.6922],[121.3169,13.6915],[121.3202,13.6913],[121.3249,13.6917],[121.3284,13.6914],[121.3324,13.6906],[121.3369,13.689],[121.3409,13.6885],[121.3434,13.6885],[121.3531,13.6893],[121.3645,13.6894],[121.3753,13.6891],[121.3824,13.6886]]}},{"type":"Feature","properties":{"source":"Frias et al. (2019)","mechanism":"Normal","description":null,"length_m":6594.0},"geometry":{"type":"LineString","coordinates":[[121.3528,13.7661],[121.3594,13.7643],[121.3658,13.762],[121.3708,13.7598],[121.3794,13.7553],[121.3856,13.7519],[121.3971,13.7442],[121.4009,13.7422],[121.4036,13.7402],[121.406,13.738]]}},{"type":"Feature","properties":{"source":"Rohrlach (2012)","mechanism":null,"description":null,"length_m":4891.9},"geometry":{"type":"LineString","coordinates":[[121.0655,13.6266],[121.0768,13.6366],[121.0842,13.6442],[121.0883,13.6486],[121.0915,13.6532],[121.0961,13.6589]]}},{"type":"Feature","properties":{"source":"Rohrlach (2012)","mechanism":null,"description":null,"length_m":1589.3},"geometry":{"type":"LineString","coordinates":[[121.0954,13.6356],[121.101,13.6403],[121.1026,13.6418],[121.1066,13.645]]}},{"type":"Feature","properties":{"source":"Rohrlach (2012)","mechanism":null,"description":null,"length_m":1562.7},"geometry":{"type":"LineString","coordinates":[[121.1113,13.6525],[121.1137,13.6551],[121.1171,13.6581],[121.1197,13.6613],[121.1214,13.6626]]}},{"type":"Feature","properties":{"source":"Rohrlach (2012)","mechanism":null,"description":null,"length_m":4019.0},"geometry":{"type":"LineString","coordinates":[[121.1165,13.6371],[121.1226,13.644],[121.1254,13.6466],[121.1281,13.6497],[121.1321,13.6532],[121.1358,13.6573],[121.1425,13.6628]]}},{"type":"Feature","properties":{"source":"Rohrlach (2012)","mechanism":null,"description":null,"length_m":3596.7},"geometry":{"type":"LineString","coordinates":[[121.1311,13.6684],[121.1322,13.6666],[121.1327,13.6644],[121.1376,13.6528],[121.1398,13.6483],[121.1424,13.642],[121.1442,13.6386]]}},{"type":"Feature","properties":{"source":"Rohrlach (2012)","mechanism":null,"description":null,"length_m":2312.5},"geometry":{"type":"LineString","coordinates":[[121.1437,13.6745],[121.1455,13.6758],[121.1477,13.678],[121.1498,13.6791],[121.151,13.6799],[121.1568,13.6848],[121.1594,13.6866],[121.1603,13.6875]]}},{"type":"Feature","properties":{"source":"Rohrlach (2012)","mechanism":null,"description":null,"length_m":4254.2},"geometry":{"type":"LineString","coordinates":[[121.1253,13.6694],[121.1269,13.6716],[121.1319,13.6776],[121.1331,13.6786],[121.1344,13.6793],[121.1372,13.6818],[121.1488,13.6904],[121.1516,13.6934],[121.1534,13.6958]]}},{"type":"Feature","properties":{"source":"Rohrlach (2012)","mechanism":null,"description":null,"length_m":2077.8},"geometry":{"type":"LineString","coordinates":[[121.1331,13.6862],[121.134,13.6868],[121.1353,13.6885],[121.1473,13.6987]]}},{"type":"Feature","properties":{"source":"Rohrlach (2012)","mechanism":null,"description":null,"length_m":7447.7},"geometry":{"type":"LineString","coordinates":[[121.1237,13.6711],[121.1229,13.6716],[121.1221,13.6728],[121.1213,13.6734],[121.1206,13.6747],[121.1197,13.6755],[121.1134,13.6836],[121.1005,13.6974],[121.0953,13.7025],[121.0929,13.7052],[121.0909,13.7071],[121.0858,13.7129],[121.0825,13.7162],[121.0797,13.7197],[121.0782,13.7212]]}},{"type":"Feature","properties":{"source":"Rohrlach (2012)","mechanism":null,"description":null,"length_m":1366.2},"geometry":{"type":"LineString","coordinates":[[121.1069,13.697],[121.1096,13.6946],[121.1133,13.6903],[121.1155,13.688]]}},{"type":"Feature","properties":{"source":"Rohrlach (2012)","mechanism":null,"description":null,"length_m":981.6},"geometry":{"type":"LineString","coordinates":[[121.0973,13.7063],[121.0984,13.7055],[121.0996,13.7042],[121.1017,13.7025],[121.1031,13.7009],[121.104,13.7004]]}},{"type":"Feature","properties":{"source":"Rohrlach (2012)","mechanism":null,"description":null,"length_m":2233.4},"geometry":{"type":"LineString","coordinates":[[121.1401,13.6961],[121.1416,13.697],[121.1422,13.6978],[121.1427,13.6987],[121.1435,13.6995],[121.1489,13.7046],[121.1543,13.7107]]}},{"type":"Feature","properties":{"source":"Rohrlach (2012)","mechanism":null,"description":null,"length_m":1010.3},"geometry":{"type":"LineString","coordinates":[[121.1511,13.7102],[121.1522,13.7093],[121.1533,13.708],[121.154,13.7075],[121.1548,13.7065],[121.1576,13.7037]]}},{"type":"Feature","properties":{"source":"Rohrlach (2012)","mechanism":null,"description":null,"length_m":750.0},"geometry":{"type":"LineString","coordinates":[[121.1565,13.7018],[121.162,13.6976]]}},{"type":"Feature","properties":{"source":"Rohrlach (2012)","mechanism":null,"description":null,"length_m":428.7},"geometry":{"type":"LineString","coordinates":[[121.1581,13.6885],[121.1598,13.6897],[121.1615,13.6905]]}},{"type":"Feature","properties":{"source":"Rohrlach (2012)","mechanism":null,"description":null,"length_m":875.0},"geometry":{"type":"LineString","coordinates":[[121.1645,13.7031],[121.1649,13.7041],[121.1659,13.7049],[121.1678,13.7076],[121.1693,13.7094]]}},{"type":"Feature","properties":{"source":"Rohrlach (2012)","mechanism":null,"description":null,"length_m":2986.7},"geometry":{"type":"LineString","coordinates":[[121.1552,13.7184],[121.1577,13.7172],[121.1604,13.7152],[121.1672,13.7113],[121.1721,13.7078],[121.1746,13.7057],[121.1779,13.7032]]}},{"type":"Feature","properties":{"source":"Rohrlach (2012)","mechanism":null,"description":null,"length_m":1808.8},"geometry":{"type":"LineString","coordinates":[[121.1467,13.7277],[121.1502,13.7259],[121.1557,13.7234],[121.1615,13.7201]]}},{"type":"Feature","properties":{"source":"Rohrlach (2012)","mechanism":null,"description":null,"length_m":1339.3},"geometry":{"type":"LineString","coordinates":[[121.138,13.7306],[121.1406,13.7298],[121.1445,13.7291],[121.148,13.7288],[121.1501,13.7282]]}},{"type":"Feature","properties":{"source":"Rohrlach (2012)","mechanism":null,"description":null,"length_m":3559.9},"geometry":{"type":"LineString","coordinates":[[121.1401,13.7369],[121.1435,13.7359],[121.1493,13.7343],[121.152,13.7339],[121.1539,13.7333],[121.1566,13.7329],[121.161,13.7315],[121.1643,13.731],[121.1674,13.7302],[121.1719,13.7294]]}},{"type":"Feature","properties":{"source":"Rohrlach (2012)","mechanism":null,"description":null,"length_m":1601.5},"geometry":{"type":"LineString","coordinates":[[121.1569,13.7402],[121.1582,13.74],[121.1594,13.7396],[121.1605,13.7389],[121.1616,13.738],[121.1633,13.7376],[121.1645,13.7367],[121.1668,13.736],[121.1686,13.7346],[121.17,13.7342]]}},{"type":"Feature","properties":{"source":"Rohrlach (2012)","mechanism":null,"description":null,"length_m":1540.0},"geometry":{"type":"LineString","coordinates":[[121.1382,13.7457],[121.1452,13.7444],[121.1496,13.7438],[121.1521,13.743]]}},{"type":"Feature","properties":{"source":"Rohrlach (2012)","mechanism":null,"description":null,"length_m":1339.8},"geometry":{"type":"LineString","coordinates":[[121.1366,13.7498],[121.1398,13.749],[121.1432,13.7478],[121.1449,13.7477],[121.1484,13.7464]]}},{"type":"Feature","properties":{"source":"Rohrlach (2012)","mechanism":null,"description":null,"length_m":761.5},"geometry":{"type":"LineString","coordinates":[[121.1675,13.7392],[121.1712,13.7377],[121.1726,13.7373],[121.1739,13.7365]]}},{"type":"Feature","properties":{"source":"Rohrlach (2012)","mechanism":null,"description":null,"length_m":2935.0},"geometry":{"type":"LineString","coordinates":[[121.1021,13.746],[121.1087,13.7451],[121.1141,13.7439],[121.1213,13.7428],[121.1249,13.7425],[121.127,13.742],[121.1288,13.7413]]}},{"type":"Feature","properties":{"source":"Rohrlach (2012)","mechanism":null,"description":null,"length_m":595.2},"geometry":{"type":"LineString","coordinates":[[121.0909,13.7474],[121.0938,13.7474],[121.0964,13.7469]]}},{"type":"Feature","properties":{"source":"Rohrlach (2012)","mechanism":null,"description":null,"length_m":6168.8},"geometry":{"type":"LineString","coordinates":[[121.1006,13.7989],[121.1112,13.7917],[121.1278,13.7798],[121.1325,13.7768],[121.1369,13.7742],[121.1423,13.7703],[121.1475,13.7671]]}},{"type":"Feature","properties":{"source":"Rohrlach (2012)","mechanism":null,"description":null,"length_m":2562.6},"geometry":{"type":"LineString","coordinates":[[121.106,13.7988],[121.1071,13.7976],[121.1097,13.796],[121.1119,13.794],[121.1153,13.7913],[121.1174,13.79],[121.1193,13.7891],[121.1218,13.7874],[121.1252,13.7854]]}},{"type":"Feature","properties":{"source":"Rohrlach (2012)","mechanism":null,"description":null,"length_m":937.6},"geometry":{"type":"LineString","coordinates":[[121.1404,13.7833],[121.1438,13.7807],[121.1476,13.7785]]}},{"type":"Feature","properties":{"source":"Rohrlach (2012)","mechanism":null,"description":null,"length_m":7489.1},"geometry":{"type":"LineString","coordinates":[[121.1321,13.7607],[121.1358,13.7588],[121.1406,13.756],[121.1493,13.7518],[121.1534,13.75],[121.159,13.7469],[121.1695,13.7413],[121.1728,13.7393],[121.1779,13.7366],[121.1809,13.7346],[121.1822,13.7343],[121.1835,13.7337],[121.1861,13.7318],[121.1885,13.7307],[121.1892,13.7299],[121.1903,13.7295],[121.1924,13.728]]}},{"type":"Feature","properties":{"source":"Rohrlach (2012)","mechanism":null,"description":null,"length_m":7591.2},"geometry":{"type":"LineString","coordinates":[[121.1369,13.779],[121.1404,13.7767],[121.1432,13.7741],[121.1452,13.7732],[121.1482,13.7707],[121.1491,13.7704],[121.1512,13.7687],[121.1568,13.7655],[121.1608,13.7626],[121.1651,13.7593],[121.1678,13.7578],[121.171,13.7563],[121.176,13.7531],[121.1775,13.7523],[121.179,13.7511],[121.1797,13.751],[121.1809,13.7499],[121.1826,13.7492],[121.186,13.7468],[121.1895,13.7448],[121.1921,13.7438],[121.195,13.7417]]}},{"type":"Feature","properties":{"source":"Rohrlach (2012)","mechanism":null,"description":null,"length_m":2365.1},"geometry":{"type":"LineString","coordinates":[[121.16,13.7636],[121.1618,13.7629],[121.1637,13.7626],[121.1693,13.7627],[121.1726,13.7632],[121.1768,13.763],[121.1793,13.7625],[121.1814,13.7617]]}},{"type":"Feature","properties":{"source":"Rohrlach (2012)","mechanism":null,"description":null,"length_m":2010.6},"geometry":{"type":"LineString","coordinates":[[121.1638,13.7607],[121.1658,13.7604],[121.1687,13.7608],[121.1715,13.7608],[121.1775,13.7599],[121.1822,13.7594]]}},{"type":"Feature","properties":{"source":"Rohrlach (2012)","mechanism":null,"description":null,"length_m":3904.8},"geometry":{"type":"LineString","coordinates":[[121.1506,13.7742],[121.1535,13.771],[121.1555,13.7703],[121.1577,13.7687],[121.1602,13.7676],[121.162,13.7673],[121.1649,13.7673],[121.1674,13.7676],[121.1706,13.7684],[121.1737,13.7686],[121.1747,13.7683],[121.1757,13.7677],[121.1765,13.7674],[121.1786,13.7673],[121.1794,13.7671],[121.1805,13.7662],[121.1821,13.7659],[121.1832,13.7651]]}},{"type":"Feature","properties":{"source":"Rohrlach (2012)","mechanism":null,"description":null,"length_m":1370.7},"geometry":{"type":"LineString","coordinates":[[121.1572,13.7773],[121.1584,13.7764],[121.1608,13.7758],[121.1619,13.7751],[121.1636,13.775],[121.1644,13.7747],[121.1661,13.7748],[121.1679,13.774],[121.1689,13.7738]]}},{"type":"Feature","properties":{"source":"Rohrlach (2012)","mechanism":null,"description":null,"length_m":1756.6},"geometry":{"type":"LineString","coordinates":[[121.1481,13.7934],[121.1516,13.7906],[121.1548,13.7886],[121.1559,13.7874],[121.1574,13.7867],[121.1581,13.7858],[121.159,13.7853],[121.1598,13.7845],[121.1608,13.7839]]}},{"type":"Feature","properties":{"source":"Rohrlach (2012)","mechanism":null,"description":null,"length_m":3436.5},"geometry":{"type":"LineString","coordinates":[[121.1572,13.7806],[121.1669,13.7879],[121.172,13.7911],[121.1779,13.7955],[121.1805,13.797],[121.1829,13.7988]]}},{"type":"Feature","properties":{"source":"Rohrlach (2012)","mechanism":null,"description":null,"length_m":1267.0},"geometry":{"type":"LineString","coordinates":[[121.1816,13.7686],[121.1829,13.7677],[121.1848,13.7669],[121.1857,13.7663],[121.1863,13.7662],[121.1877,13.7662],[121.1889,13.7659],[121.1922,13.7643]]}},{"type":"Feature","properties":{"source":"Rohrlach (2012)","mechanism":null,"description":null,"length_m":4817.0},"geometry":{"type":"LineString","coordinates":[[121.184,13.7708],[121.1861,13.7692],[121.1883,13.7678],[121.1888,13.7676],[121.1906,13.7671],[121.194,13.7652],[121.2014,13.7599],[121.2049,13.7571],[121.206,13.7564],[121.2071,13.7561],[121.211,13.753],[121.2144,13.7507],[121.217,13.7487],[121.2206,13.7464]]}},{"type":"Feature","properties":{"source":"Rohrlach (2012)","mechanism":null,"description":null,"length_m":5328.0},"geometry":{"type":"LineString","coordinates":[[121.1653,13.7242],[121.1677,13.7264],[121.1745,13.7336],[121.1798,13.7385],[121.1806,13.7397],[121.1817,13.7404],[121.1873,13.7458],[121.1905,13.7483],[121.1922,13.7505],[121.1929,13.751],[121.1938,13.7514],[121.1951,13.753],[121.1968,13.7544],[121.1982,13.7558],[121.2006,13.7572]]}},{"type":"Feature","properties":{"source":"Rohrlach (2012)","mechanism":null,"description":null,"length_m":1366.2},"geometry":{"type":"LineString","coordinates":[[121.1976,13.751],[121.1984,13.7514],[121.1991,13.7523],[121.1999,13.7531],[121.2031,13.7557],[121.2059,13.7576],[121.207,13.759]]}},{"type":"Feature","properties":{"source":"Rohrlach (2012)","mechanism":null,"description":null,"length_m":1394.8},"geometry":{"type":"LineString","coordinates":[[121.2096,13.7448],[121.2127,13.7472],[121.2152,13.7495],[121.2184,13.7514],[121.2197,13.7526]]}},{"type":"Feature","properties":{"source":"Rohrlach (2012)","mechanism":null,"description":null,"length_m":942.8},"geometry":{"type":"LineString","coordinates":[[121.1779,13.7116],[121.1834,13.7182]]}},{"type":"Feature","properties":{"source":"Rohrlach (2012)","mechanism":null,"description":null,"length_m":1496.7},"geometry":{"type":"LineString","coordinates":[[121.1789,13.7057],[121.1833,13.7101],[121.1849,13.7119],[121.1862,13.7131],[121.1882,13.7156]]}},{"type":"Feature","properties":{"source":"Rohrlach (2012)","mechanism":null,"description":null,"length_m":4256.5},"geometry":{"type":"LineString","coordinates":[[121.1761,13.697],[121.1789,13.7009],[121.1821,13.7042],[121.1857,13.7085],[121.1885,13.7114],[121.1928,13.7171],[121.1951,13.7194],[121.1976,13.7216],[121.1995,13.7238],[121.2003,13.7245],[121.2014,13.7249],[121.202,13.7257]]}},{"type":"Feature","properties":{"source":"Rohrlach (2012)","mechanism":null,"description":null,"length_m":1391.1},"geometry":{"type":"LineString","coordinates":[[121.1963,13.7276],[121.1981,13.7286],[121.1996,13.7303],[121.2036,13.7335],[121.205,13.7344],[121.2065,13.735]]}},{"type":"Feature","properties":{"source":"Rohrlach (2012)","mechanism":null,"description":null,"length_m":999.4},"geometry":{"type":"LineString","coordinates":[[121.1989,13.7382],[121.2018,13.7381],[121.2047,13.7377],[121.2063,13.7372],[121.2077,13.7364]]}},{"type":"Feature","properties":{"source":"Rohrlach (2012)","mechanism":null,"description":null,"length_m":790.9},"geometry":{"type":"LineString","coordinates":[[121.198,13.7409],[121.2014,13.7409],[121.2029,13.7407],[121.204,13.7402],[121.2052,13.7402]]}},{"type":"Feature","properties":{"source":"Rohrlach (2012)","mechanism":null,"description":null,"length_m":831.0},"geometry":{"type":"LineString","coordinates":[[121.2031,13.7343],[121.2046,13.7337],[121.2062,13.7333],[121.209,13.7329],[121.2105,13.733]]}},{"type":"Feature","properties":{"source":"Rohrlach (2012)","mechanism":null,"description":null,"length_m":3184.9},"geometry":{"type":"LineString","coordinates":[[121.2011,13.7287],[121.207,13.7342],[121.2095,13.7369],[121.2121,13.7392],[121.2149,13.7413],[121.2162,13.7426],[121.2235,13.7473]]}},{"type":"Feature","properties":{"source":"Rohrlach (2012)","mechanism":null,"description":null,"length_m":2113.8},"geometry":{"type":"LineString","coordinates":[[121.2021,13.7415],[121.2034,13.7402],[121.2045,13.7395],[121.2056,13.7391],[121.2065,13.7381],[121.2099,13.7361],[121.2156,13.7333],[121.2184,13.7312]]}},{"type":"Feature","properties":{"source":"Rohrlach (2012)","mechanism":null,"description":null,"length_m":5699.1},"geometry":{"type":"LineString","coordinates":[[121.1983,13.7437],[121.1997,13.7439],[121.2009,13.7439],[121.2023,13.7436],[121.204,13.7429],[121.2063,13.7428],[121.2084,13.7416],[121.2125,13.7396],[121.2147,13.7388],[121.2157,13.7381],[121.2168,13.7377],[121.2179,13.7375],[121.2205,13.7375],[121.222,13.7372],[121.2238,13.7366],[121.2275,13.7364],[121.2302,13.736],[121.2343,13.7348],[121.2354,13.7342],[121.2372,13.7341],[121.2393,13.7336],[121.2484,13.7307]]}},{"type":"Feature","properties":{"source":"Rohrlach (2012)","mechanism":null,"description":null,"length_m":3331.7},"geometry":{"type":"LineString","coordinates":[[121.1994,13.7229],[121.2033,13.7208],[121.2079,13.719],[121.2091,13.718],[121.211,13.7171],[121.2171,13.7143],[121.2244,13.7114],[121.2257,13.7107],[121.2272,13.7103]]}},{"type":"Feature","properties":{"source":"Rohrlach (2012)","mechanism":null,"description":null,"length_m":4694.3},"geometry":{"type":"LineString","coordinates":[[121.1745,13.7021],[121.1779,13.7],[121.1811,13.6975],[121.1848,13.695],[121.1897,13.6907],[121.1931,13.6889],[121.1959,13.6866],[121.204,13.681],[121.2062,13.6793],[121.2096,13.6774]]}},{"type":"Feature","properties":{"source":"Rohrlach (2012)","mechanism":null,"description":null,"length_m":3503.8},"geometry":{"type":"LineString","coordinates":[[121.1833,13.7012],[121.1896,13.6952],[121.198,13.6886],[121.2002,13.6866],[121.2038,13.6842],[121.2063,13.682],[121.2081,13.681]]}},{"type":"Feature","properties":{"source":"Rohrlach (2012)","mechanism":null,"description":null,"length_m":1964.8},"geometry":{"type":"LineString","coordinates":[[121.1684,13.6657],[121.1696,13.663],[121.1708,13.6589],[121.1726,13.655],[121.1735,13.6518],[121.1748,13.6492]]}},{"type":"Feature","properties":{"source":"Rohrlach (2012)","mechanism":null,"description":null,"length_m":3386.2},"geometry":{"type":"LineString","coordinates":[[121.1722,13.6704],[121.1789,13.6766],[121.1829,13.6791],[121.1858,13.6817],[121.1879,13.6827],[121.189,13.684],[121.1956,13.6904]]}},{"type":"Feature","properties":{"source":"Rohrlach (2012)","mechanism":null,"description":null,"length_m":917.8},"geometry":{"type":"LineString","coordinates":[[121.1798,13.677],[121.1829,13.6741],[121.1855,13.6708]]}},{"type":"Feature","properties":{"source":"Rohrlach (2012)","mechanism":null,"description":null,"length_m":5363.0},"geometry":{"type":"LineString","coordinates":[[121.1766,13.6737],[121.18,13.6707],[121.1843,13.6665],[121.187,13.6645],[121.1933,13.6578],[121.2006,13.6512],[121.208,13.6433],[121.2112,13.6392]]}},{"type":"Feature","properties":{"source":"Rohrlach (2012)","mechanism":null,"description":null,"length_m":2785.7},"geometry":{"type":"LineString","coordinates":[[121.1974,13.6616],[121.2029,13.6561],[121.2078,13.6504],[121.2153,13.6436]]}},{"type":"Feature","properties":{"source":"Rohrlach (2012)","mechanism":null,"description":null,"length_m":1530.9},"geometry":{"type":"LineString","coordinates":[[121.2019,13.6744],[121.2053,13.6705],[121.2118,13.6645]]}},{"type":"Feature","properties":{"source":"Rohrlach (2012)","mechanism":null,"description":null,"length_m":755.2},"geometry":{"type":"LineString","coordinates":[[121.2102,13.6745],[121.2153,13.6699]]}},{"type":"Feature","properties":{"source":"Rohrlach (2012)","mechanism":null,"description":null,"length_m":711.9},"geometry":{"type":"LineString","coordinates":[[121.2134,13.6751],[121.2138,13.6749],[121.2158,13.6726],[121.2183,13.671]]}},{"type":"Feature","properties":{"source":"Rohrlach (2012)","mechanism":null,"description":null,"length_m":2818.4},"geometry":{"type":"LineString","coordinates":[[121.2071,13.6301],[121.2109,13.6352],[121.214,13.639],[121.217,13.6422],[121.2197,13.6446],[121.2241,13.6493]]}},{"type":"Feature","properties":{"source":"Rohrlach (2012)","mechanism":null,"description":null,"length_m":1328.5},"geometry":{"type":"LineString","coordinates":[[121.1945,13.6389],[121.1997,13.6422],[121.2051,13.6449]]}},{"type":"Feature","properties":{"source":"Rohrlach (2012)","mechanism":null,"description":"Solid Black","length_m":4884.3},"geometry":{"type":"LineString","coordinates":[[121.2039,13.647],[121.2095,13.6502],[121.2166,13.6552],[121.2203,13.6575],[121.226,13.6617],[121.2313,13.6659],[121.2346,13.6681],[121.2388,13.6717],[121.2397,13.6722],[121.2404,13.6728]]}},{"type":"Feature","properties":{"source":"Rohrlach (2012)","mechanism":null,"description":null,"length_m":736.3},"geometry":{"type":"LineString","coordinates":[[121.2165,13.6574],[121.2193,13.6555],[121.2218,13.6533]]}},{"type":"Feature","properties":{"source":"Rohrlach (2012)","mechanism":null,"description":null,"length_m":887.7},"geometry":{"type":"LineString","coordinates":[[121.2246,13.6644],[121.2319,13.6608]]}},{"type":"Feature","properties":{"source":"Rohrlach (2012)","mechanism":null,"description":null,"length_m":8917.5},"geometry":{"type":"LineString","coordinates":[[121.2034,13.7003],[121.2096,13.6958],[121.2157,13.6911],[121.2212,13.6876],[121.2308,13.6799],[121.2343,13.6775],[121.2405,13.6727],[121.2431,13.6712],[121.2465,13.6686],[121.2476,13.6679],[121.2507,13.6672],[121.2536,13.6662],[121.2607,13.6627],[121.2626,13.6616],[121.267,13.6584],[121.2714,13.6556]]}},{"type":"Feature","properties":{"source":"Rohrlach (2012)","mechanism":null,"description":null,"length_m":3228.8},"geometry":{"type":"LineString","coordinates":[[121.2367,13.6535],[121.2397,13.657],[121.2435,13.6608],[121.2447,13.6625],[121.2463,13.6638],[121.2478,13.6656],[121.251,13.6687],[121.2545,13.673],[121.2566,13.6752]]}},{"type":"Feature","properties":{"source":"Rohrlach (2012)","mechanism":null,"description":null,"length_m":2403.6},"geometry":{"type":"LineString","coordinates":[[121.2436,13.6503],[121.2494,13.6567],[121.2525,13.6597],[121.2538,13.6615],[121.255,13.6624],[121.2573,13.665],[121.2588,13.666]]}},{"type":"Feature","properties":{"source":"Rohrlach (2012)","mechanism":null,"description":null,"length_m":1433.1},"geometry":{"type":"LineString","coordinates":[[121.2442,13.6711],[121.2495,13.6768],[121.2534,13.6804]]}},{"type":"Feature","properties":{"source":"Rohrlach (2012)","mechanism":null,"description":null,"length_m":1592.7},"geometry":{"type":"LineString","coordinates":[[121.2401,13.6854],[121.246,13.681],[121.2484,13.6789],[121.2518,13.6767]]}},{"type":"Feature","properties":{"source":"Rohrlach (2012)","mechanism":null,"description":null,"length_m":2109.1},"geometry":{"type":"LineString","coordinates":[[121.2465,13.684],[121.2486,13.6807],[121.2519,13.6766],[121.2535,13.6741],[121.2558,13.6714],[121.2577,13.6685]]}},{"type":"Feature","properties":{"source":"Rohrlach (2012)","mechanism":null,"description":null,"length_m":1856.3},"geometry":{"type":"LineString","coordinates":[[121.2387,13.6909],[121.2427,13.6877],[121.2516,13.6798]]}},{"type":"Feature","properties":{"source":"Rohrlach (2012)","mechanism":null,"description":null,"length_m":939.4},"geometry":{"type":"LineString","coordinates":[[121.2403,13.6924],[121.2412,13.6915],[121.2422,13.6906],[121.2449,13.6893],[121.2465,13.6878],[121.2473,13.6877]]}},{"type":"Feature","properties":{"source":"Rohrlach (2012)","mechanism":null,"description":null,"length_m":386.2},"geometry":{"type":"LineString","coordinates":[[121.2523,13.6842],[121.2529,13.6835],[121.2544,13.6829],[121.255,13.6821]]}},{"type":"Feature","properties":{"source":"Rohrlach (2012)","mechanism":null,"description":null,"length_m":12539.2},"geometry":{"type":"LineString","coordinates":[[121.2123,13.7268],[121.214,13.7235],[121.2152,13.7217],[121.2163,13.7197],[121.2169,13.719],[121.2175,13.7171],[121.2187,13.7155],[121.2207,13.7114],[121.2217,13.7098],[121.2228,13.7071],[121.225,13.7034],[121.2303,13.693],[121.2377,13.6807],[121.2412,13.6758],[121.2449,13.6694],[121.2475,13.6658],[121.2487,13.6631],[121.2503,13.661],[121.2514,13.6592],[121.2534,13.6551],[121.2553,13.6519],[121.2567,13.6484],[121.2598,13.6425],[121.261,13.6392],[121.262,13.6371],[121.2631,13.6351],[121.2676,13.6278]]}},{"type":"Feature","properties":{"source":"Rohrlach (2012)","mechanism":null,"description":null,"length_m":645.6},"geometry":{"type":"LineString","coordinates":[[121.2415,13.6392],[121.2461,13.6355]]}},{"type":"Feature","properties":{"source":"Rohrlach (2012)","mechanism":null,"description":null,"length_m":683.4},"geometry":{"type":"LineString","coordinates":[[121.2396,13.6371],[121.2421,13.6352],[121.2448,13.6337]]}},{"type":"Feature","properties":{"source":"Rohrlach (2012)","mechanism":null,"description":null,"length_m":1259.0},"geometry":{"type":"LineString","coordinates":[[121.2401,13.6333],[121.2423,13.6316],[121.2466,13.6278],[121.2492,13.6263]]}},{"type":"Feature","properties":{"source":"Rohrlach (2012)","mechanism":null,"description":null,"length_m":1893.2},"geometry":{"type":"LineString","coordinates":[[121.2395,13.6172],[121.2437,13.6222],[121.2448,13.6235],[121.2455,13.6239],[121.2465,13.6256],[121.248,13.6274],[121.2494,13.6288],[121.2509,13.63]]}},{"type":"Feature","properties":{"source":"Rohrlach (2012)","mechanism":null,"description":null,"length_m":1219.4},"geometry":{"type":"LineString","coordinates":[[121.2532,13.6344],[121.2553,13.636],[121.2583,13.6393],[121.2613,13.6421]]}},{"type":"Feature","properties":{"source":"Rohrlach (2012)","mechanism":null,"description":null,"length_m":5356.8},"geometry":{"type":"LineString","coordinates":[[121.2507,13.6338],[121.2532,13.6303],[121.2598,13.6228],[121.2641,13.6186],[121.2647,13.6176],[121.2655,13.6166],[121.2664,13.6159],[121.2674,13.6153],[121.2704,13.6121],[121.2722,13.6108],[121.2734,13.6094],[121.2751,13.6078],[121.2791,13.6048],[121.2819,13.6017],[121.2833,13.6006],[121.2852,13.5997]]}},{"type":"Feature","properties":{"source":"Rohrlach (2012)","mechanism":null,"description":null,"length_m":919.7},"geometry":{"type":"LineString","coordinates":[[121.2523,13.6184],[121.2555,13.6209],[121.2573,13.6228],[121.2587,13.6237]]}},{"type":"Feature","properties":{"source":"Rohrlach (2012)","mechanism":null,"description":null,"length_m":668.9},"geometry":{"type":"LineString","coordinates":[[121.2601,13.6213],[121.2613,13.6225],[121.2648,13.6253]]}},{"type":"Feature","properties":{"source":"Rohrlach (2012)","mechanism":null,"description":null,"length_m":2450.4},"geometry":{"type":"LineString","coordinates":[[121.2645,13.6306],[121.2659,13.629],[121.2677,13.6273],[121.2704,13.6253],[121.275,13.6211],[121.2774,13.6185],[121.2807,13.6152]]}},{"type":"Feature","properties":{"source":"Rohrlach (2012)","mechanism":null,"description":null,"length_m":3866.9},"geometry":{"type":"LineString","coordinates":[[121.2585,13.6142],[121.2665,13.621],[121.2734,13.6272],[121.2776,13.6313],[121.2847,13.638]]}},{"type":"Feature","properties":{"source":"Rohrlach (2012)","mechanism":null,"description":null,"length_m":4292.9},"geometry":{"type":"LineString","coordinates":[[121.2573,13.6065],[121.2632,13.6135],[121.2684,13.6192],[121.27,13.6214],[121.2759,13.6274],[121.2783,13.6302],[121.2833,13.6357]]}},{"type":"Feature","properties":{"source":"Rohrlach (2012)","mechanism":null,"description":null,"length_m":4461.6},"geometry":{"type":"LineString","coordinates":[[121.2807,13.596],[121.2806,13.5998],[121.2796,13.6097],[121.2788,13.614],[121.2798,13.6172],[121.28,13.619],[121.2804,13.6208],[121.2809,13.6219],[121.2823,13.6246],[121.2829,13.6264],[121.2834,13.6302],[121.2836,13.6354]]}},{"type":"Feature","properties":{"source":"Rohrlach (2012)","mechanism":null,"description":null,"length_m":1036.5},"geometry":{"type":"LineString","coordinates":[[121.2669,13.6456],[121.2686,13.647],[121.27,13.6484],[121.2721,13.65],[121.2739,13.6519]]}},{"type":"Feature","properties":{"source":"Rohrlach (2012)","mechanism":null,"description":null,"length_m":3310.7},"geometry":{"type":"LineString","coordinates":[[121.2698,13.6395],[121.2747,13.645],[121.276,13.6461],[121.277,13.6477],[121.2832,13.6537],[121.2889,13.6595],[121.2903,13.6616]]}},{"type":"Feature","properties":{"source":"Rohrlach (2012)","mechanism":null,"description":null,"length_m":981.7},"geometry":{"type":"LineString","coordinates":[[121.2747,13.6486],[121.2774,13.6457],[121.2801,13.6434],[121.281,13.6423]]}},{"type":"Feature","properties":{"source":"Rohrlach (2012)","mechanism":null,"description":null,"length_m":935.8},"geometry":{"type":"LineString","coordinates":[[121.2784,13.6515],[121.2816,13.648],[121.2833,13.6459],[121.2841,13.6452]]}},{"type":"Feature","properties":{"source":"Rohrlach (2012)","mechanism":null,"description":null,"length_m":887.3},"geometry":{"type":"LineString","coordinates":[[121.28,13.6571],[121.2829,13.6606],[121.285,13.6634]]}},{"type":"Feature","properties":{"source":"Rohrlach (2012)","mechanism":null,"description":null,"length_m":1898.6},"geometry":{"type":"LineString","coordinates":[[121.2813,13.6366],[121.2858,13.6416],[121.2882,13.6447],[121.2913,13.6479],[121.2927,13.6496]]}},{"type":"Feature","properties":{"source":"Rohrlach (2012)","mechanism":null,"description":null,"length_m":1100.9},"geometry":{"type":"LineString","coordinates":[[121.3046,13.6198],[121.3076,13.6158],[121.3111,13.6122]]}},{"type":"Feature","properties":{"source":"Rohrlach (2012)","mechanism":null,"description":null,"length_m":1886.5},"geometry":{"type":"LineString","coordinates":[[121.2998,13.6379],[121.3006,13.6359],[121.302,13.6342],[121.3072,13.6304],[121.3078,13.6301],[121.3084,13.6301],[121.3097,13.6294],[121.3112,13.6284],[121.3126,13.6272]]}},{"type":"Feature","properties":{"source":"Rohrlach (2012)","mechanism":null,"description":null,"length_m":2668.1},"geometry":{"type":"LineString","coordinates":[[121.2935,13.6329],[121.3003,13.6405],[121.3024,13.6432],[121.3052,13.6456],[121.3096,13.651]]}},{"type":"Feature","properties":{"source":"Rohrlach (2012)","mechanism":null,"description":null,"length_m":2508.6},"geometry":{"type":"LineString","coordinates":[[121.2982,13.6474],[121.3125,13.6336],[121.3149,13.6317]]}},{"type":"Feature","properties":{"source":"Rohrlach (2012)","mechanism":null,"description":null,"length_m":2198.7},"geometry":{"type":"LineString","coordinates":[[121.2976,13.6432],[121.2994,13.6412],[121.3017,13.6392],[121.3044,13.6384],[121.3051,13.6379],[121.3078,13.6351],[121.3104,13.6329],[121.3125,13.6302]]}},{"type":"Feature","properties":{"source":"Rohrlach (2012)","mechanism":null,"description":null,"length_m":1163.9},"geometry":{"type":"LineString","coordinates":[[121.2696,13.6718],[121.2729,13.6692],[121.2739,13.6682],[121.2747,13.668],[121.278,13.6654]]}},{"type":"Feature","properties":{"source":"Rohrlach (2012)","mechanism":null,"description":"Solid Black","length_m":4741.5},"geometry":{"type":"LineString","coordinates":[[121.2498,13.6775],[121.2524,13.6782],[121.2545,13.679],[121.2614,13.6827],[121.2742,13.6886],[121.2779,13.6901],[121.2829,13.6926],[121.287,13.6944],[121.2893,13.6959]]}},{"type":"Feature","properties":{"source":"Rohrlach (2012)","mechanism":null,"description":null,"length_m":5026.1},"geometry":{"type":"LineString","coordinates":[[121.2136,13.7344],[121.2168,13.729],[121.2173,13.7282],[121.2191,13.7262],[121.2206,13.7237],[121.2224,13.7214],[121.2245,13.7174],[121.2276,13.7126],[121.2355,13.701],[121.2373,13.6988],[121.2388,13.6964]]}},{"type":"Feature","properties":{"source":"Rohrlach (2012)","mechanism":null,"description":null,"length_m":2326.8},"geometry":{"type":"LineString","coordinates":[[121.2159,13.7279],[121.2239,13.726],[121.2278,13.7248],[121.2297,13.7244],[121.2306,13.7241],[121.2313,13.7235],[121.2365,13.7224]]}},{"type":"Feature","properties":{"source":"Rohrlach (2012)","mechanism":null,"description":null,"length_m":3581.6},"geometry":{"type":"LineString","coordinates":[[121.2214,13.7416],[121.2225,13.7369],[121.225,13.7302],[121.2282,13.7231],[121.2304,13.7191],[121.2312,13.7171],[121.2322,13.7155],[121.2331,13.7128],[121.234,13.7119]]}},{"type":"Feature","properties":{"source":"Rohrlach (2012)","mechanism":null,"description":null,"length_m":4551.7},"geometry":{"type":"LineString","coordinates":[[121.2345,13.7219],[121.239,13.7189],[121.2401,13.7175],[121.2422,13.7166],[121.2448,13.7144],[121.2483,13.7129],[121.2529,13.7107],[121.2557,13.7097],[121.26,13.7094],[121.2628,13.7083],[121.2662,13.7076],[121.2668,13.7072],[121.2674,13.7067],[121.2719,13.7051]]}},{"type":"Feature","properties":{"source":"Rohrlach (2012)","mechanism":null,"description":null,"length_m":3242.1},"geometry":{"type":"LineString","coordinates":[[121.2443,13.7194],[121.2471,13.7182],[121.2502,13.7161],[121.2526,13.7136],[121.258,13.7097],[121.2586,13.7089],[121.2594,13.7082],[121.2622,13.7065],[121.2641,13.7058],[121.2663,13.7044],[121.269,13.7034]]}},{"type":"Feature","properties":{"source":"Rohrlach (2012)","mechanism":null,"description":null,"length_m":1915.5},"geometry":{"type":"LineString","coordinates":[[121.2751,13.6752],[121.2795,13.6723],[121.2806,13.672],[121.2815,13.6715],[121.285,13.6686],[121.2896,13.6656]]}},{"type":"Feature","properties":{"source":"Rohrlach (2012)","mechanism":null,"description":null,"length_m":1287.2},"geometry":{"type":"LineString","coordinates":[[121.2788,13.6758],[121.2805,13.6747],[121.2835,13.6721],[121.2884,13.6688]]}},{"type":"Feature","properties":{"source":"Rohrlach (2012)","mechanism":null,"description":null,"length_m":1735.6},"geometry":{"type":"LineString","coordinates":[[121.2749,13.6817],[121.2773,13.6797],[121.2798,13.6778],[121.2853,13.6743],[121.2881,13.6729]]}},{"type":"Feature","properties":{"source":"Rohrlach (2012)","mechanism":null,"description":null,"length_m":1948.3},"geometry":{"type":"LineString","coordinates":[[121.3018,13.6677],[121.3032,13.667],[121.3045,13.6665],[121.3062,13.6662],[121.3084,13.6662],[121.31,13.6656],[121.3117,13.6656],[121.3135,13.6659],[121.3157,13.6661],[121.3194,13.6658]]}},{"type":"Feature","properties":{"source":"Rohrlach (2012)","mechanism":null,"description":null,"length_m":874.9},"geometry":{"type":"LineString","coordinates":[[121.3141,13.6642],[121.3153,13.6604],[121.3168,13.6567]]}},{"type":"Feature","properties":{"source":"Rohrlach (2012)","mechanism":null,"description":null,"length_m":4941.3},"geometry":{"type":"LineString","coordinates":[[121.2931,13.6636],[121.3025,13.6565],[121.3048,13.655],[121.3119,13.6493],[121.3134,13.6484],[121.3157,13.6463],[121.3194,13.6442],[121.3229,13.6416],[121.3265,13.6385],[121.3294,13.6367]]}},{"type":"Feature","properties":{"source":"Rohrlach (2012)","mechanism":null,"description":null,"length_m":1552.6},"geometry":{"type":"LineString","coordinates":[[121.318,13.6496],[121.319,13.6479],[121.3203,13.6464],[121.3214,13.6454],[121.3235,13.6441],[121.3247,13.6427],[121.326,13.6414],[121.3282,13.64]]}},{"type":"Feature","properties":{"source":"Rohrlach (2012)","mechanism":null,"description":null,"length_m":1126.5},"geometry":{"type":"LineString","coordinates":[[121.326,13.6471],[121.3272,13.6459],[121.3297,13.6446],[121.3342,13.6409]]}},{"type":"Feature","properties":{"source":"Rohrlach (2012)","mechanism":null,"description":null,"length_m":3526.7},"geometry":{"type":"LineString","coordinates":[[121.2879,13.65],[121.2877,13.6512],[121.2877,13.6525],[121.288,13.6539],[121.2885,13.6552],[121.2884,13.6579],[121.289,13.6611],[121.2891,13.6623],[121.2889,13.6697],[121.2884,13.6759],[121.2879,13.6792],[121.2877,13.6815]]}},{"type":"Feature","properties":{"source":"Rohrlach (2012)","mechanism":null,"description":null,"length_m":2340.8},"geometry":{"type":"LineString","coordinates":[[121.2664,13.6802],[121.2689,13.6828],[121.2715,13.6847],[121.2757,13.6895],[121.2781,13.6919],[121.2813,13.6954]]}},{"type":"Feature","properties":{"source":"Rohrlach (2012)","mechanism":null,"description":null,"length_m":9648.2},"geometry":{"type":"LineString","coordinates":[[121.2427,13.7035],[121.2456,13.7015],[121.2492,13.6996],[121.2525,13.6973],[121.2561,13.6953],[121.2583,13.6938],[121.2612,13.6921],[121.2631,13.6906],[121.2646,13.6899],[121.266,13.6896],[121.2667,13.6892],[121.2674,13.6887],[121.2679,13.6879],[121.2708,13.6867],[121.2722,13.6857],[121.2731,13.6849],[121.2741,13.6843],[121.2751,13.6841],[121.276,13.684],[121.2782,13.6834],[121.2837,13.6816],[121.2899,13.68],[121.2927,13.6795],[121.2955,13.6787],[121.297,13.6785],[121.2986,13.6786],[121.301,13.678],[121.3051,13.6767],[121.3091,13.6764],[121.31,13.6761],[121.3117,13.6751],[121.3144,13.6748],[121.3178,13.6734],[121.324,13.6721]]}},{"type":"Feature","properties":{"source":"Rohrlach (2012)","mechanism":null,"description":null,"length_m":1883.8},"geometry":{"type":"LineString","coordinates":[[121.2833,13.6786],[121.2856,13.6818],[121.2881,13.6849],[121.2907,13.6878],[121.293,13.6897],[121.2945,13.6916]]}},{"type":"Feature","properties":{"source":"Rohrlach (2012)","mechanism":null,"description":null,"length_m":4433.2},"geometry":{"type":"LineString","coordinates":[[121.2441,13.7184],[121.2476,13.7137],[121.2506,13.7108],[121.2524,13.7087],[121.2541,13.7074],[121.2609,13.6992],[121.2708,13.6881]]}},{"type":"Feature","properties":{"source":"Rohrlach (2012)","mechanism":null,"description":null,"length_m":2769.0},"geometry":{"type":"LineString","coordinates":[[121.2542,13.7041],[121.2593,13.7035],[121.2645,13.7032],[121.2689,13.7028],[121.2733,13.7026],[121.2769,13.7028],[121.2797,13.7027]]}},{"type":"Feature","properties":{"source":"Rohrlach (2012)","mechanism":null,"description":null,"length_m":2443.5},"geometry":{"type":"LineString","coordinates":[[121.2676,13.687],[121.2682,13.6916],[121.2684,13.6976],[121.2691,13.7011],[121.2693,13.703],[121.2694,13.709]]}},{"type":"Feature","properties":{"source":"Rohrlach (2012)","mechanism":null,"description":null,"length_m":6916.5},"geometry":{"type":"LineString","coordinates":[[121.2667,13.7127],[121.2685,13.7106],[121.2704,13.7074],[121.2772,13.6977],[121.2801,13.693],[121.2815,13.6902],[121.283,13.6889],[121.2835,13.6876],[121.2847,13.6863],[121.2883,13.6806],[121.291,13.6771],[121.2988,13.6673],[121.3029,13.6615]]}},{"type":"Feature","properties":{"source":"Rohrlach (2012)","mechanism":null,"description":null,"length_m":1774.9},"geometry":{"type":"LineString","coordinates":[[121.2828,13.6924],[121.2868,13.69],[121.2876,13.6894],[121.2898,13.6871],[121.2926,13.6846],[121.2939,13.6831],[121.2952,13.6821]]}},{"type":"Feature","properties":{"source":"Rohrlach (2012)","mechanism":null,"description":null,"length_m":1990.2},"geometry":{"type":"LineString","coordinates":[[121.2763,13.6937],[121.2826,13.6995],[121.2851,13.7023],[121.2876,13.7054],[121.2891,13.7066]]}},{"type":"Feature","properties":{"source":"Rohrlach (2012)","mechanism":null,"description":null,"length_m":1644.3},"geometry":{"type":"LineString","coordinates":[[121.2775,13.7044],[121.2773,13.7009],[121.2774,13.6954],[121.2771,13.6934],[121.2765,13.6915],[121.2764,13.6897]]}},{"type":"Feature","properties":{"source":"Rohrlach (2012)","mechanism":null,"description":null,"length_m":457.6},"geometry":{"type":"LineString","coordinates":[[121.3458,13.6546],[121.3494,13.6524]]}},{"type":"Feature","properties":{"source":"Rohrlach (2012)","mechanism":null,"description":null,"length_m":15173.8},"geometry":{"type":"LineString","coordinates":[[121.3136,13.6143],[121.319,13.6199],[121.3212,13.6227],[121.3237,13.6253],[121.3259,13.6282],[121.333,13.6354],[121.3361,13.6395],[121.344,13.6487],[121.3472,13.6517],[121.3496,13.6545],[121.353,13.6578],[121.3602,13.6652],[121.3662,13.67],[121.3724,13.6764],[121.3738,13.6782],[121.3751,13.6791],[121.3763,13.6798],[121.3895,13.6933],[121.4019,13.7084],[121.4071,13.716]]}},{"type":"Feature","properties":{"source":"Rohrlach (2012)","mechanism":null,"description":null,"length_m":853.0},"geometry":{"type":"LineString","coordinates":[[121.3428,13.6586],[121.3458,13.6575],[121.3497,13.6549]]}},{"type":"Feature","properties":{"source":"Rohrlach (2012)","mechanism":null,"description":null,"length_m":711.3},"geometry":{"type":"LineString","coordinates":[[121.349,13.657],[121.3502,13.6567],[121.3514,13.6562],[121.3545,13.6538]]}},{"type":"Feature","properties":{"source":"Rohrlach (2012)","mechanism":null,"description":null,"length_m":1669.7},"geometry":{"type":"LineString","coordinates":[[121.3466,13.6605],[121.3502,13.6595],[121.3537,13.6582],[121.3586,13.6559],[121.3605,13.6544]]}},{"type":"Feature","properties":{"source":"Rohrlach (2012)","mechanism":null,"description":null,"length_m":916.4},"geometry":{"type":"LineString","coordinates":[[121.3569,13.6617],[121.3585,13.6612],[121.36,13.6604],[121.3642,13.6575]]}},{"type":"Feature","properties":{"source":"Rohrlach (2012)","mechanism":null,"description":null,"length_m":1067.3},"geometry":{"type":"LineString","coordinates":[[121.3586,13.6632],[121.3603,13.6631],[121.3619,13.6626],[121.3648,13.6608],[121.367,13.6588]]}},{"type":"Feature","properties":{"source":"Rohrlach (2012)","mechanism":null,"description":null,"length_m":1518.3},"geometry":{"type":"LineString","coordinates":[[121.3585,13.6667],[121.3615,13.665],[121.3624,13.6648],[121.3633,13.6639],[121.3654,13.663],[121.3701,13.6593]]}},{"type":"Feature","properties":{"source":"Rohrlach (2012)","mechanism":null,"description":null,"length_m":4860.3},"geometry":{"type":"LineString","coordinates":[[121.3302,13.6711],[121.3325,13.6705],[121.3346,13.6703],[121.342,13.6703],[121.351,13.6697],[121.3533,13.6697],[121.3564,13.6693],[121.3602,13.668],[121.3655,13.6657],[121.3676,13.6644],[121.3697,13.6626],[121.3725,13.6606]]}},{"type":"Feature","properties":{"source":"Rohrlach (2012)","mechanism":null,"description":null,"length_m":7944.5},"geometry":{"type":"LineString","coordinates":[[121.2307,13.7265],[121.2305,13.7231],[121.2305,13.7185],[121.2307,13.7151],[121.231,13.7132],[121.231,13.707],[121.2316,13.7009],[121.2321,13.6904],[121.2319,13.6883],[121.2314,13.6861],[121.2321,13.6549]]}},{"type":"Feature","properties":{"source":"Rohrlach (2012)","mechanism":null,"description":null,"length_m":4845.4},"geometry":{"type":"LineString","coordinates":[[121.3106,13.6635],[121.3154,13.671],[121.3186,13.6766],[121.3204,13.6793],[121.3208,13.6816],[121.3221,13.6841],[121.3228,13.6865],[121.3241,13.6887],[121.3261,13.6935],[121.328,13.6966],[121.3294,13.7003],[121.3307,13.7023]]}},{"type":"Feature","properties":{"source":"Rohrlach (2012)","mechanism":null,"description":null,"length_m":8905.3},"geometry":{"type":"LineString","coordinates":[[121.2697,13.7086],[121.2737,13.7074],[121.2777,13.706],[121.2848,13.7032],[121.2892,13.7013],[121.293,13.7005],[121.2955,13.699],[121.2986,13.6977],[121.2998,13.697],[121.3018,13.6965],[121.3061,13.6945],[121.3079,13.6939],[121.3097,13.6927],[121.3115,13.6922],[121.3138,13.6911],[121.319,13.6892],[121.3285,13.6887],[121.3397,13.6878],[121.3441,13.6868],[121.3477,13.6863]]}},{"type":"Feature","properties":{"source":"Rohrlach (2012)","mechanism":null,"description":null,"length_m":7296.2},"geometry":{"type":"LineString","coordinates":[[121.2799,13.6833],[121.2847,13.6887],[121.2982,13.7019],[121.3039,13.7088],[121.3069,13.7115],[121.3096,13.7137],[121.3106,13.7151],[121.3131,13.7179],[121.3161,13.7222],[121.3172,13.7228],[121.3181,13.7237],[121.3221,13.729],[121.3235,13.7303],[121.3248,13.732]]}},{"type":"Feature","properties":{"source":"Rohrlach (2012)","mechanism":null,"description":null,"length_m":2178.6},"geometry":{"type":"LineString","coordinates":[[121.2692,13.7141],[121.2706,13.7233],[121.2706,13.7266],[121.2711,13.731],[121.2711,13.7337]]}},{"type":"Feature","properties":{"source":"Rohrlach (2012)","mechanism":null,"description":null,"length_m":2419.4},"geometry":{"type":"LineString","coordinates":[[121.3013,13.6948],[121.3035,13.6983],[121.3066,13.7019],[121.3089,13.7053],[121.3115,13.7086],[121.3127,13.7105],[121.3145,13.7123]]}},{"type":"Feature","properties":{"source":"Rohrlach (2012)","mechanism":null,"description":null,"length_m":5652.3},"geometry":{"type":"LineString","coordinates":[[121.2876,13.7001],[121.2913,13.6991],[121.2919,13.6987],[121.2928,13.6978],[121.2938,13.6977],[121.2953,13.6967],[121.2976,13.6961],[121.2994,13.695],[121.3015,13.6944],[121.3031,13.6934],[121.3062,13.6924],[121.3096,13.6908],[121.3117,13.69],[121.3149,13.6894],[121.3193,13.6882],[121.3232,13.6876],[121.3257,13.687],[121.3307,13.6864],[121.3344,13.6855],[121.3367,13.6852]]}},{"type":"Feature","properties":{"source":"Rohrlach (2012)","mechanism":null,"description":null,"length_m":2945.5},"geometry":{"type":"LineString","coordinates":[[121.3026,13.6978],[121.3104,13.6978],[121.3118,13.6976],[121.3129,13.6972],[121.3143,13.6964],[121.3157,13.6959],[121.3175,13.6947],[121.3192,13.6941],[121.3218,13.693],[121.3239,13.6927],[121.3249,13.6922],[121.3261,13.6919],[121.3274,13.6918],[121.3285,13.692]]}},{"type":"Feature","properties":{"source":"Rohrlach (2012)","mechanism":null,"description":null,"length_m":1519.1},"geometry":{"type":"LineString","coordinates":[[121.3197,13.69],[121.3337,13.6898]]}},{"type":"Feature","properties":{"source":"Rohrlach (2012)","mechanism":null,"description":null,"length_m":965.2},"geometry":{"type":"LineString","coordinates":[[121.3328,13.6907],[121.3376,13.6906],[121.3417,13.6899]]}},{"type":"Feature","properties":{"source":"Rohrlach (2012)","mechanism":null,"description":null,"length_m":3355.4},"geometry":{"type":"LineString","coordinates":[[121.3318,13.7005],[121.3347,13.6976],[121.3374,13.6954],[121.3387,13.694],[121.3408,13.6926],[121.3425,13.6908],[121.345,13.6893],[121.3501,13.6839],[121.3517,13.6819],[121.3535,13.6792]]}},{"type":"Feature","properties":{"source":"Rohrlach (2012)","mechanism":null,"description":null,"length_m":2533.7},"geometry":{"type":"LineString","coordinates":[[121.3461,13.6883],[121.3499,13.6879],[121.3564,13.6867],[121.3622,13.6861],[121.3644,13.6856],[121.367,13.6848],[121.3691,13.6847]]}},{"type":"Feature","properties":{"source":"Rohrlach (2012)","mechanism":null,"description":null,"length_m":1540.9},"geometry":{"type":"LineString","coordinates":[[121.3568,13.6907],[121.3584,13.69],[121.3605,13.6899],[121.3615,13.6896],[121.3624,13.6891],[121.3635,13.6881],[121.3645,13.6878],[121.3669,13.6863],[121.3684,13.6861],[121.3696,13.6854]]}},{"type":"Feature","properties":{"source":"Rohrlach (2012)","mechanism":null,"description":null,"length_m":1936.0},"geometry":{"type":"LineString","coordinates":[[121.3547,13.6959],[121.3566,13.6955],[121.3593,13.6954],[121.3607,13.6945],[121.3615,13.6944],[121.3624,13.6945],[121.3638,13.6935],[121.3653,13.693],[121.3676,13.692],[121.3696,13.6915],[121.3715,13.6913]]}},{"type":"Feature","properties":{"source":"Rohrlach (2012)","mechanism":null,"description":null,"length_m":1586.5},"geometry":{"type":"LineString","coordinates":[[121.3367,13.7007],[121.3397,13.6986],[121.3438,13.6967],[121.347,13.696],[121.3501,13.696]]}},{"type":"Feature","properties":{"source":"Rohrlach (2012)","mechanism":null,"description":null,"length_m":2254.0},"geometry":{"type":"LineString","coordinates":[[121.3247,13.7055],[121.333,13.7043],[121.335,13.7038],[121.3375,13.7029],[121.3411,13.7027],[121.3437,13.7018],[121.345,13.7015]]}},{"type":"Feature","properties":{"source":"Rohrlach (2012)","mechanism":null,"description":null,"length_m":1050.6},"geometry":{"type":"LineString","coordinates":[[121.3249,13.7115],[121.3254,13.7094],[121.3265,13.7074],[121.3284,13.7059],[121.3307,13.7046]]}},{"type":"Feature","properties":{"source":"Rohrlach (2012)","mechanism":null,"description":null,"length_m":2326.3},"geometry":{"type":"LineString","coordinates":[[121.3403,13.7039],[121.3435,13.7043],[121.3465,13.7049],[121.3528,13.7067],[121.355,13.7074],[121.3578,13.7077],[121.3611,13.7089]]}},{"type":"Feature","properties":{"source":"Rohrlach (2012)","mechanism":null,"description":null,"length_m":3852.6},"geometry":{"type":"LineString","coordinates":[[121.3659,13.7043],[121.3729,13.6954],[121.3885,13.6775]]}},{"type":"Feature","properties":{"source":"Rohrlach (2012)","mechanism":null,"description":null,"length_m":3418.7},"geometry":{"type":"LineString","coordinates":[[121.3957,13.673],[121.395,13.6752],[121.3944,13.681],[121.3933,13.6867],[121.3922,13.6897],[121.3899,13.6944],[121.3893,13.6966],[121.3887,13.6972],[121.3881,13.6984],[121.3875,13.7013],[121.3874,13.7024]]}},{"type":"Feature","properties":{"source":"Rohrlach (2012)","mechanism":null,"description":null,"length_m":17608.2},"geometry":{"type":"LineString","coordinates":[[121.3946,13.6885],[121.3911,13.6902],[121.3873,13.6916],[121.3851,13.693],[121.3842,13.6932],[121.3832,13.6932],[121.3818,13.694],[121.3795,13.6947],[121.3778,13.6957],[121.3752,13.6968],[121.366,13.7002],[121.3613,13.7014],[121.3579,13.7027],[121.3552,13.7032],[121.3517,13.7044],[121.3481,13.7053],[121.3358,13.7096],[121.3347,13.7098],[121.3327,13.7108],[121.3295,13.7115],[121.3263,13.7127],[121.3234,13.7142],[121.3219,13.7147],[121.3193,13.7159],[121.3182,13.7161],[121.317,13.7166],[121.3111,13.7202],[121.3079,13.7216],[121.3063,13.7226],[121.304,13.7233],[121.3003,13.7257],[121.2957,13.728],[121.2924,13.7278],[121.2883,13.7281],[121.2873,13.7284],[121.2853,13.7293],[121.2807,13.7297],[121.2764,13.7312],[121.2723,13.7321],[121.2703,13.7323],[121.2673,13.7329],[121.2653,13.7336],[121.2619,13.7338],[121.2608,13.7342],[121.2578,13.7341],[121.2538,13.7344],[121.2491,13.7366],[121.2465,13.7375],[121.2444,13.7377],[121.2423,13.7374]]}},{"type":"Feature","properties":{"source":"Rohrlach (2012)","mechanism":null,"description":null,"length_m":2999.9},"geometry":{"type":"LineString","coordinates":[[121.2938,13.7275],[121.2947,13.7088],[121.2954,13.705],[121.2966,13.7006]]}},{"type":"Feature","properties":{"source":"Rohrlach (2012)","mechanism":null,"description":null,"length_m":1506.8},"geometry":{"type":"LineString","coordinates":[[121.2937,13.7117],[121.303,13.7218]]}},{"type":"Feature","properties":{"source":"Rohrlach (2012)","mechanism":null,"description":null,"length_m":636.4},"geometry":{"type":"LineString","coordinates":[[121.2806,13.7325],[121.2815,13.7315],[121.2826,13.7305],[121.2839,13.7298],[121.2853,13.7292]]}},{"type":"Feature","properties":{"source":"Rohrlach (2012)","mechanism":null,"description":null,"length_m":437.8},"geometry":{"type":"LineString","coordinates":[[121.2671,13.7351],[121.2684,13.7336],[121.27,13.7324]]}},{"type":"Feature","properties":{"source":"Rohrlach (2012)","mechanism":null,"description":null,"length_m":471.5},"geometry":{"type":"LineString","coordinates":[[121.264,13.7364],[121.2651,13.7347],[121.2667,13.7331]]}},{"type":"Feature","properties":{"source":"Rohrlach (2012)","mechanism":null,"description":null,"length_m":644.9},"geometry":{"type":"LineString","coordinates":[[121.2556,13.7387],[121.2558,13.7374],[121.2565,13.736],[121.2575,13.7349],[121.2588,13.7342]]}},{"type":"Feature","properties":{"source":"Rohrlach (2012)","mechanism":null,"description":null,"length_m":8819.4},"geometry":{"type":"LineString","coordinates":[[121.2501,13.7383],[121.2489,13.7395],[121.2464,13.7408],[121.2427,13.7438],[121.2414,13.7445],[121.2395,13.7458],[121.2356,13.7495],[121.2347,13.75],[121.2341,13.7507],[121.233,13.7511],[121.2321,13.7524],[121.2313,13.7528],[121.2304,13.7538],[121.229,13.7546],[121.2281,13.7558],[121.2268,13.7567],[121.221,13.7614],[121.2119,13.7699],[121.1996,13.7819],[121.1945,13.7872],[121.1901,13.7913]]}},{"type":"Feature","properties":{"source":"Rohrlach (2012)","mechanism":null,"description":null,"length_m":2228.2},"geometry":{"type":"LineString","coordinates":[[121.218,13.7585],[121.2215,13.7579],[121.2284,13.7576],[121.235,13.7567],[121.2385,13.7565]]}},{"type":"Feature","properties":{"source":"Rohrlach (2012)","mechanism":null,"description":null,"length_m":907.9},"geometry":{"type":"LineString","coordinates":[[121.2136,13.7704],[121.2172,13.7728],[121.2208,13.7746]]}},{"type":"Feature","properties":{"source":"Rohrlach (2012)","mechanism":null,"description":null,"length_m":715.8},"geometry":{"type":"LineString","coordinates":[[121.216,13.7688],[121.2188,13.7706],[121.2215,13.7725]]}},{"type":"Feature","properties":{"source":"Rohrlach (2012)","mechanism":null,"description":null,"length_m":1481.8},"geometry":{"type":"LineString","coordinates":[[121.2237,13.7727],[121.227,13.7747],[121.2301,13.7769],[121.2323,13.778],[121.2351,13.7801]]}},{"type":"Feature","properties":{"source":"Rohrlach (2012)","mechanism":null,"description":null,"length_m":2520.4},"geometry":{"type":"LineString","coordinates":[[121.237,13.7843],[121.2415,13.7885],[121.2451,13.7911],[121.2472,13.793],[121.2498,13.7949],[121.2526,13.7974],[121.2547,13.799]]}},{"type":"Feature","properties":{"source":"Rohrlach (2012)","mechanism":null,"description":null,"length_m":2304.6},"geometry":{"type":"LineString","coordinates":[[121.2414,13.786],[121.2432,13.7873],[121.2452,13.7892],[121.2467,13.7898],[121.252,13.7944],[121.2563,13.7974],[121.258,13.7989]]}},{"type":"Feature","properties":{"source":"Rohrlach (2012)","mechanism":null,"description":null,"length_m":8130.8},"geometry":{"type":"LineString","coordinates":[[121.2178,13.799],[121.2212,13.795],[121.2244,13.7909],[121.2308,13.7835],[121.2382,13.7744],[121.2414,13.7712],[121.2437,13.7694],[121.2452,13.7674],[121.2474,13.7653],[121.2497,13.7625],[121.2522,13.76],[121.2684,13.7448]]}},{"type":"Feature","properties":{"source":"Rohrlach (2012)","mechanism":null,"description":null,"length_m":3089.0},"geometry":{"type":"LineString","coordinates":[[121.2529,13.7727],[121.2594,13.7638],[121.2643,13.7563],[121.2686,13.7494]]}},{"type":"Feature","properties":{"source":"Rohrlach (2012)","mechanism":null,"description":null,"length_m":8083.9},"geometry":{"type":"LineString","coordinates":[[121.249,13.7988],[121.2529,13.7951],[121.2584,13.7904],[121.2685,13.7811],[121.2715,13.7781],[121.2758,13.7736],[121.2834,13.7666],[121.2891,13.7607],[121.2919,13.7582],[121.2976,13.7525],[121.3026,13.7479]]}},{"type":"Feature","properties":{"source":"Rohrlach (2012)","mechanism":null,"description":null,"length_m":4409.7},"geometry":{"type":"LineString","coordinates":[[121.2956,13.728],[121.2926,13.7303],[121.2895,13.7319],[121.287,13.7338],[121.2828,13.7362],[121.2768,13.7408],[121.2734,13.7446],[121.2725,13.7454],[121.2718,13.7463],[121.2712,13.7481],[121.2704,13.7494],[121.2701,13.7502],[121.2698,13.7522],[121.2692,13.7548],[121.2692,13.7558]]}},{"type":"Feature","properties":{"source":"Rohrlach (2012)","mechanism":null,"description":null,"length_m":2724.3},"geometry":{"type":"LineString","coordinates":[[121.2922,13.7388],[121.2924,13.7399],[121.292,13.741],[121.292,13.7424],[121.2922,13.7462],[121.2917,13.7484],[121.2919,13.7504],[121.2914,13.7542],[121.2915,13.758],[121.2911,13.7612],[121.2912,13.7632]]}},{"type":"Feature","properties":{"source":"Rohrlach (2012)","mechanism":null,"description":null,"length_m":6558.1},"geometry":{"type":"LineString","coordinates":[[121.3071,13.7331],[121.3072,13.7348],[121.3068,13.7383],[121.3068,13.7442],[121.3058,13.7483],[121.3053,13.7528],[121.304,13.7565],[121.3031,13.7603],[121.3025,13.7674],[121.3024,13.7714],[121.3018,13.7793],[121.3008,13.7829],[121.3004,13.7855],[121.3003,13.789],[121.3,13.7902],[121.2995,13.7914]]}},{"type":"Feature","properties":{"source":"Rohrlach (2012)","mechanism":null,"description":null,"length_m":3091.1},"geometry":{"type":"LineString","coordinates":[[121.3008,13.7231],[121.3047,13.7266],[121.3084,13.7303],[121.3145,13.7359],[121.3178,13.7398],[121.3211,13.7428]]}},{"type":"Feature","properties":{"source":"Rohrlach (2012)","mechanism":null,"description":null,"length_m":983.8},"geometry":{"type":"LineString","coordinates":[[121.3201,13.7452],[121.3215,13.7469],[121.3236,13.7501],[121.3255,13.7523]]}},{"type":"Feature","properties":{"source":"Rohrlach (2012)","mechanism":null,"description":null,"length_m":1416.8},"geometry":{"type":"LineString","coordinates":[[121.3252,13.7463],[121.3267,13.7452],[121.3284,13.7444],[121.3308,13.7437],[121.334,13.7433],[121.3357,13.7426],[121.3372,13.7416]]}},{"type":"Feature","properties":{"source":"Rohrlach (2012)","mechanism":null,"description":null,"length_m":5549.4},"geometry":{"type":"LineString","coordinates":[[121.3394,13.7176],[121.3423,13.7214],[121.345,13.7243],[121.3496,13.7298],[121.3524,13.7334],[121.3594,13.7409],[121.3638,13.7465],[121.3654,13.7491],[121.3717,13.7565]]}},{"type":"Feature","properties":{"source":"Rohrlach (2012)","mechanism":null,"description":null,"length_m":547.0},"geometry":{"type":"LineString","coordinates":[[121.3485,13.7326],[121.3489,13.732],[121.3494,13.7316],[121.3514,13.7309],[121.3525,13.7299]]}},{"type":"Feature","properties":{"source":"Rohrlach (2012)","mechanism":null,"description":null,"length_m":1809.9},"geometry":{"type":"LineString","coordinates":[[121.3611,13.7291],[121.3652,13.7267],[121.3692,13.7241],[121.3707,13.7234],[121.3727,13.7227],[121.3737,13.7219],[121.3755,13.721]]}},{"type":"Feature","properties":{"source":"Rohrlach (2012)","mechanism":null,"description":"Solid Black","length_m":1817.6},"geometry":{"type":"LineString","coordinates":[[121.2972,13.6901],[121.3139,13.692]]}},{"type":"Feature","properties":{"source":"Rohrlach (2012)","mechanism":null,"description":"Solid Black","length_m":931.3},"geometry":{"type":"LineString","coordinates":[[121.3187,13.6956],[121.3235,13.6958],[121.3273,13.6956]]}},{"type":"Feature","properties":{"source":"Rohrlach (2012)","mechanism":null,"description":"Solid Black","length_m":612.8},"geometry":{"type":"LineString","coordinates":[[121.3297,13.6962],[121.3327,13.6966],[121.3353,13.6966]]}},{"type":"Feature","properties":{"source":"Rohrlach (2012)","mechanism":null,"description":"Solid Black","length_m":480.6},"geometry":{"type":"LineString","coordinates":[[121.3408,13.6982],[121.3431,13.6986],[121.3451,13.6994]]}},{"type":"Feature","properties":{"source":"Rohrlach (2012)","mechanism":null,"description":"Solid Black","length_m":961.2},"geometry":{"type":"LineString","coordinates":[[121.3478,13.6983],[121.35,13.699],[121.3521,13.6994],[121.3544,13.6995],[121.3565,13.6993]]}},{"type":"Feature","properties":{"source":"Rohrlach (2012)","mechanism":null,"description":"Solid Blue","length_m":16707.1},"geometry":{"type":"LineString","coordinates":[[121.3844,13.6792],[121.3819,13.6801],[121.3788,13.6808],[121.3685,13.6819],[121.3641,13.6828],[121.3596,13.6832],[121.3546,13.6841],[121.3524,13.6843],[121.3452,13.6842],[121.3431,13.684],[121.3407,13.684],[121.3355,13.6847],[121.3269,13.6863],[121.3236,13.6863],[121.3164,13.6867],[121.3095,13.6878],[121.2938,13.6896],[121.2869,13.6896],[121.2855,13.6898],[121.2798,13.6917],[121.2702,13.6961],[121.2608,13.7001],[121.2563,13.7015],[121.2534,13.7027],[121.2503,13.7037],[121.2431,13.7075],[121.2379,13.7093],[121.2354,13.7106]]}},{"type":"Feature","properties":{"source":"Rohrlach (2012)","mechanism":null,"description":"Solid Blue","length_m":9717.6},"geometry":{"type":"LineString","coordinates":[[121.1307,13.6832],[121.1338,13.6841],[121.1365,13.6846],[121.1444,13.6851],[121.1555,13.6868],[121.1582,13.6878],[121.1619,13.6886],[121.1645,13.6895],[121.1676,13.6901],[121.1795,13.6947],[121.1886,13.6976],[121.1982,13.7011],[121.2007,13.7022],[121.2053,13.7049],[121.2116,13.7081],[121.2155,13.7098]]}},{"type":"Feature","properties":{"source":"Rohrlach (2012)","mechanism":null,"description":"Solid Blue","length_m":5239.4},"geometry":{"type":"LineString","coordinates":[[121.3377,13.7435],[121.3382,13.7401],[121.3395,13.737],[121.3411,13.7346],[121.342,13.7339],[121.343,13.7333],[121.3447,13.7329],[121.3486,13.7329],[121.3521,13.7325],[121.3537,13.732],[121.3592,13.7298],[121.3631,13.7288],[121.3661,13.7284],[121.3722,13.7281],[121.3753,13.7277],[121.3783,13.7269]]}},{"type":"Feature","properties":{"source":"Rohrlach (2012)","mechanism":null,"description":"Dashed Blue","length_m":5744.3},"geometry":{"type":"LineString","coordinates":[[121.3636,13.7455],[121.3692,13.7379],[121.3698,13.7374],[121.3728,13.7349],[121.3846,13.7263],[121.3878,13.7244],[121.3953,13.7208],[121.4065,13.7167]]}},{"type":"Feature","properties":{"source":"Rohrlach (2012)","mechanism":null,"description":"Dashed Blue","length_m":7068.2},"geometry":{"type":"LineString","coordinates":[[121.3197,13.7924],[121.3207,13.7877],[121.3213,13.7836],[121.3218,13.7812],[121.3228,13.7784],[121.324,13.7756],[121.3251,13.7723],[121.3261,13.7701],[121.3328,13.761],[121.3352,13.7586],[121.3382,13.7562],[121.3428,13.7533],[121.3459,13.7519],[121.3479,13.7512],[121.3596,13.75]]}},{"type":"Feature","properties":{"source":"Rohrlach (2012)","mechanism":null,"description":"Dashed Blue","length_m":3814.5},"geometry":{"type":"LineString","coordinates":[[121.3331,13.7829],[121.3349,13.7795],[121.3363,13.7755],[121.337,13.774],[121.3394,13.7707],[121.341,13.7694],[121.3422,13.7687],[121.3451,13.7677],[121.3472,13.7672],[121.3494,13.7669],[121.3546,13.7655],[121.3572,13.7652],[121.3595,13.7653]]}}]}